COUNTRY_NAME,COUNTRY_CODE_FIPS,ID,LATITUDE,LONGITUDE,ELEVATION,STATE,NAME,GSN_FLAG,HCN_CRN_FLAG,WMO_ID
United Arab Emirates,AE,AE000041196,25.333,55.517,34.0,,SHARJAH INTER. AIRP,GSN,,41196.0
Afghanistan,AF,AF000040930,35.317,69.017,3366.0,,NORTH-SALANG,GSN,,40930.0
Algeria,AG,AG000060390,36.7167,3.25,24.0,,ALGER-DAR EL BEIDA,GSN,,60390.0
Algeria,AG,AG000060590,30.5667,2.8667,397.0,,EL-GOLEA,GSN,,60590.0
Algeria,AG,AG000060611,28.05,9.6331,561.0,,IN-AMENAS,GSN,,60611.0
Algeria,AG,AG000060680,22.8,5.4331,1362.0,,TAMANRASSET,GSN,,60680.0
Azerbaijan,AJ,AJ000037989,38.5,48.9,-22.0,,ASTARA,GSN,,37989.0
Albania,AL,ALM00013615,41.415,19.721,38.4,,TIRANA RINAS,GSN,,13615.0
Armenia,AM,AM000037781,40.5,44.2,3223.0,,ARAGAC VISOKOGORNAYA,GSN,,37781.0
Angola,AO,AO000066160,-8.85,13.233,74.0,,LUANDA,GSN,,66160.0
Angola,AO,AO000066270,-11.417,15.117,1304.0,,WAKU KUNGU (CELA),GSN,,66270.0
Angola,AO,AO000066390,-14.933,13.567,1761.0,,LUBANGO (SA DA BAND,GSN,,66390.0
Angola,AO,AO000066410,-14.65,17.683,1343.0,,MENONGUE (SERPA PIN,GSN,,66410.0
Angola,AO,AO000066422,-15.2,12.15,45.0,,MOCAMEDES,GSN,,66422.0
Angola,AO,AO000066447,-15.833,20.35,1088.0,,MAVINGA,GSN,,66447.0
American Samoa [United States],AQ,AQW00061705,-14.3306,-170.7136,3.7,AS,PAGO PAGO WSO AP,GSN,,91765.0
Argentina,AR,AR000087007,-22.1,-65.6,3479.0,,LA QUIACA OBSERVATO,GSN,,87007.0
Argentina,AR,AR000087065,-24.167,-62.9,205.0,,RIVADAVIA,GSN,,87065.0
Argentina,AR,AR000087078,-24.7,-60.583,130.0,,LAS LOMITAS,GSN,,87078.0
Argentina,AR,AR000087155,-27.45,-59.05,53.0,,RESISTENCIA AERO,GSN,,87155.0
Argentina,AR,AR000087217,-29.383,-66.817,438.0,,LA RIOJA AERO.,GSN,,87217.0
Argentina,AR,AR000087257,-29.883,-61.95,88.0,,CERES AERO,GSN,,87257.0
Argentina,AR,AR000087270,-29.183,-59.7,53.0,,RECONQUISTA AERO,GSN,,87270.0
Argentina,AR,AR000087344,-31.317,-64.217,489.0,,CORDOBA AERO,GSN,,87344.0
Argentina,AR,AR000087374,-31.783,-60.483,74.0,,PARANA AERO,GSN,,87374.0
Argentina,AR,AR000087418,-32.833,-68.783,704.0,,MENDOZA AERO,GSN,,87418.0
Argentina,AR,AR000087534,-34.133,-63.367,137.0,,LABOULAYE AERO,GSN,,87534.0
Argentina,AR,AR000087623,-36.567,-64.266,192.0,,SANTA ROSA AERO,GSN,,87623.0
Argentina,AR,AR000087692,-37.933,-57.583,22.0,,MAR DEL PLATA AERO,GSN,,87692.0
Argentina,AR,AR000087715,-38.95,-68.133,273.0,,NEUQUEN AERO,GSN,,87715.0
Argentina,AR,AR000087803,-42.933,-71.15,799.0,,ESQUEL AERO,GSN,,87803.0
Argentina,AR,AR000087828,-43.2,-65.266,43.0,,TRELEW AERO,GSN,,87828.0
Argentina,AR,AR000087860,-45.783,-67.5,58.0,,COMODORO RIVADAVIA,GSN,,87860.0
Argentina,AR,AR000087925,-51.617,-69.283,19.0,,RIO GALLEGOS AERO,GSN,,87925.0
Argentina,AR,AR000870470,-24.85,-65.483,1246.0,,SALTA AERO,GSN,,87047.0
Argentina,AR,AR000873050,-30.25,-68.75,1175.0,,JACHAL,GSN,,87305.0
Argentina,AR,AR000875440,-35.867,-61.9,85.0,,PEHUAJO AERO,GSN,,87544.0
Argentina,AR,AR000877500,-38.733,-62.167,75.0,,BAHIA BLANCA AERO,GSN,,87750.0
Argentina,AR,ARM00087178,-27.386,-55.971,131.1,,POSADAS,GSN,,87178.0
Argentina,AR,ARM00087289,-29.689,-57.152,70.1,,PASO DE LOS LIBRES,GSN,,87289.0
Argentina,AR,ARM00087497,-33.01,-58.613,22.9,,GUALEGUAYCHU,GSN,,87497.0
Argentina,AR,ARM00087506,-35.494,-69.574,1430.1,,MALARGUE,GSN,,87506.0
Argentina,AR,ARM00087593,-34.972,-57.895,21.9,,LA PLATA,GSN,,87593.0
Australia,AS,ASM00094299,-16.288,149.965,9.0,,WILLIS ISLAND,GSN,,94299.0
Australia,AS,ASM00094995,-31.542,159.079,7.0,,LORD HOWE ISLAND AERO,GSN,,94995.0
Australia,AS,ASM00094998,-54.499,158.937,8.3,,MACQUARIE ISLAND,GSN,,94998.0
Australia,AS,ASN00001019,-14.2964,126.6453,23.0,,KALUMBURU,GSN,,94100.0
Australia,AS,ASN00002012,-18.2292,127.6636,422.0,,HALLS CREEK AIRPORT,GSN,,94212.0
Australia,AS,ASN00003003,-17.9475,122.2353,7.4,,BROOME AIRPORT,GSN,,94203.0
Australia,AS,ASN00004032,-20.3725,118.6317,6.4,,PORT HEDLAND AIRPORT,GSN,,94312.0
Australia,AS,ASN00005007,-22.2406,114.0967,5.0,,LEARMONTH AIRPORT,GSN,,94302.0
Australia,AS,ASN00006011,-24.8878,113.67,4.0,,CARNARVON AIRPORT,GSN,,94300.0
Australia,AS,ASN00007045,-26.6136,118.5372,517.0,,MEEKATHARRA AIRPORT,GSN,,94430.0
Australia,AS,ASN00007176,-23.4169,119.7989,524.0,,NEWMAN AERO,GSN,,94317.0
Australia,AS,ASN00008051,-28.7953,114.6975,33.0,,GERALDTON AIRPORT,GSN,,94403.0
Australia,AS,ASN00009518,-34.3728,115.1358,13.0,,CAPE LEEUWIN,GSN,,94601.0
Australia,AS,ASN00009741,-34.9414,117.8022,68.0,,ALBANY AIRPORT,GSN,,94802.0
Australia,AS,ASN00009789,-33.83,121.8925,25.0,,ESPERANCE,GSN,,94638.0
Australia,AS,ASN00010286,-31.6219,117.2217,216.7,,CUNDERDIN AIRFIELD,GSN,,95625.0
Australia,AS,ASN00011052,-30.8453,128.1092,159.0,,FORREST,GSN,,95646.0
Australia,AS,ASN00012038,-30.7847,121.4533,365.3,,KALGOORLIE-BOULDER AIRPORT,GSN,,94637.0
Australia,AS,ASN00013017,-25.0341,128.301,598.0,,GILES METEOROLOGICAL OFFICE,GSN,,94461.0
Australia,AS,ASN00014015,-12.4239,130.8925,30.4,,DARWIN AIRPORT,GSN,,94120.0
Australia,AS,ASN00014508,-12.2741,136.8203,51.6,,GOVE AIRPORT,GSN,,94150.0
Australia,AS,ASN00014932,-14.5229,132.3826,133.6,,TINDAL RAAF,GSN,,94131.0
Australia,AS,ASN00015135,-19.6423,134.1833,375.7,,TENNANT CREEK AIRPORT,GSN,,94238.0
Australia,AS,ASN00015548,-20.1883,130.0161,340.0,,RABBIT FLAT,GSN,,95322.0
Australia,AS,ASN00015590,-23.7951,133.889,546.0,,ALICE SPRINGS AIRPORT,GSN,,94326.0
Australia,AS,ASN00017031,-29.6481,138.0637,50.0,,MARREE COMPARISON,GSN,,94480.0
Australia,AS,ASN00017043,-27.5553,135.4456,116.5,,OODNADATTA AIRPORT,GSN,,94476.0
Australia,AS,ASN00018011,-32.1267,133.6725,10.0,,CEDUNA POST OFFICE,GSN,,94653.0
Australia,AS,ASN00021133,-33.7676,138.2182,109.1,,SNOWTOWN (RAYVILLE PARK),GSN,,95670.0
Australia,AS,ASN00022823,-35.7549,136.5959,158.0,,CAPE BORDA,GSN,,95805.0
Australia,AS,ASN00026020,-37.8333,140.7833,65.0,,MOUNT GAMBIER POST OFFICE,GSN,,94821.0
Australia,AS,ASN00027045,-12.6778,141.9208,18.0,,WEIPA AERO,GSN,,94170.0
Australia,AS,ASN00029077,-17.7483,139.5356,5.7,,BURKETOWN AIRPORT,GSN,,94260.0
Australia,AS,ASN00029126,-20.7361,139.4817,381.0,,MOUNT ISA MINE,GSN,,94332.0
Australia,AS,ASN00030045,-20.7289,143.1425,211.1,,RICHMOND POST OFFICE,GSN,,94340.0
Australia,AS,ASN00030124,-18.3039,143.5306,301.8,,GEORGETOWN AIRPORT,GSN,,94274.0
Australia,AS,ASN00031010,-16.9333,145.7833,2.0,,CAIRNS POST OFFICE,GSN,,94287.0
Australia,AS,ASN00033119,-21.1172,149.2169,30.3,,MACKAY M.O,GSN,,94367.0
Australia,AS,ASN00036031,-23.4372,144.2769,192.2,,LONGREACH AERO,GSN,,94346.0
Australia,AS,ASN00038026,-25.8975,139.3472,46.6,,BIRDSVILLE AIRPORT,GSN,,95482.0
Australia,AS,ASN00039123,-23.8553,151.2628,74.5,,GLADSTONE RADAR,GSN,,94380.0
Australia,AS,ASN00040908,-26.3911,153.0403,6.4,,TEWANTIN RSL PARK,GSN,,94570.0
Australia,AS,ASN00043109,-28.0489,148.5942,198.5,,ST GEORGE AIRPORT,GSN,,94517.0
Australia,AS,ASN00044021,-26.4139,146.2558,301.6,,CHARLEVILLE AERO,GSN,,94510.0
Australia,AS,ASN00045025,-27.9867,143.815,130.9,,THARGOMINDAH AIRPORT,GSN,,95492.0
Australia,AS,ASN00046037,-29.4345,142.0098,183.0,,TIBOOBURRA POST OFFICE,GSN,,94485.0
Australia,AS,ASN00047007,-31.9759,141.4676,315.0,,BROKEN HILL (PATTON STREET),GSN,,94689.0
Australia,AS,ASN00048027,-31.484,145.8294,260.0,,COBAR MO,GSN,,94711.0
Australia,AS,ASN00056242,-29.7796,151.1121,582.0,,INVERELL (RAGLAN ST),GSN,,95541.0
Australia,AS,ASN00058012,-29.4333,153.3633,27.4,,YAMBA PILOT STATION,GSN,,94589.0
Australia,AS,ASN00060141,-31.8896,152.512,8.0,,TAREE AIRPORT AWS,GSN,,95784.0
Australia,AS,ASN00065070,-32.2206,148.5753,284.0,,DUBBO AIRPORT AWS,GSN,,95719.0
Australia,AS,ASN00067033,-33.6022,150.7794,19.0,,RICHMOND RAAF,GSN,,95753.0
Australia,AS,ASN00069018,-35.9093,150.1532,17.0,,MORUYA HEADS PILOT STATION,GSN,,94937.0
Australia,AS,ASN00072091,-35.9383,148.3842,1475.0,,CABRAMURRA SMHEA,GSN,,95916.0
Australia,AS,ASN00072150,-35.1583,147.4573,212.0,,WAGGA WAGGA AMO,GSN,,94910.0
Australia,AS,ASN00074258,-35.5575,144.9458,94.0,,DENILIQUIN AIRPORT AWS,GSN,,95869.0
Australia,AS,ASN00076031,-34.2358,142.0867,50.0,,MILDURA AIRPORT,GSN,,94693.0
Australia,AS,ASN00085072,-38.1156,147.1322,4.6,,EAST SALE AIRPORT,GSN,,94907.0
Australia,AS,ASN00090015,-38.8556,143.5128,82.0,,CAPE OTWAY LIGHTHOUSE,GSN,,94842.0
Australia,AS,ASN00091293,-41.0556,146.7856,3.0,,LOW HEAD,GSN,,95964.0
Australia,AS,ASN00094010,-43.4892,147.1453,55.0,,CAPE BRUNY LIGHTHOUSE,GSN,,94967.0
Austria,AU,AU000005010,48.05,14.1331,383.0,,KREMSMUENSTER,GSN,,11012.0
Austria,AU,AU000005901,48.2331,16.35,199.0,,WIEN,GSN,,11035.0
Austria,AU,AU000015410,47.05,12.95,3106.0,,SONNBLICK,GSN,,11146.0
Antarctica,AY,AYM00088963,-63.4,-56.983,24.0,,BASE ESPERANZA,GSN,,88963.0
Antarctica,AY,AYM00088968,-60.733,-44.733,8.0,,BASE ORCADAS,GSN,,88968.0
Antarctica,AY,AYM00089002,-70.667,-8.25,50.0,,NEUMAYER,GSN,,89002.0
Antarctica,AY,AYM00089004,-71.7,-2.8,817.0,,S.A.N.A.E. AWS,GSN,,89004.0
Antarctica,AY,AYM00089022,-75.45,-26.217,30.0,,HALLEY,GSN,,89022.0
Antarctica,AY,AYM00089050,-62.183,-58.883,14.0,,BELLINGSHAUSEN AWS,GSN,,89050.0
Antarctica,AY,AYM00089055,-64.233,-56.717,198.0,,BASE MARAMBIO,GSN,,89055.0
Antarctica,AY,AYM00089056,-62.183,-58.983,48.0,,CENTRO MET. ANTARTICO PDTE. E,GSN,,89056.0
Antarctica,AY,AYM00089062,-67.567,-68.117,33.0,,ROTHERA,GSN,,89062.0
Antarctica,AY,AYM00089063,-65.25,-64.267,11.0,,VERNADSKY,GSN,,89063.0
Antarctica,AY,AYM00089065,-71.317,-68.283,69.0,,FOSSIL BLUFF,GSN,,89065.0
Antarctica,AY,AYM00089262,-67.017,-61.467,45.0,,UNIV. WI ID 8926 (LARSEN ICE,GSN,,89262.0
Antarctica,AY,AYM00089266,-72.2,-60.167,115.0,,UNIV. WI ID 8902 (BUTLER ISLA,GSN,,89266.0
Antarctica,AY,AYM00089272,-74.8,-71.483,1589.0,,UNIV. WI ID 8917 (SKI-BLU),GSN,,89272.0
Antarctica,AY,AYM00089324,-80.0,-119.4,1530.0,,BYRD STATION,GSN,,89324.0
Antarctica,AY,AYM00089327,-73.2,-127.05,230.0,,MOUNT SIPLE,GSN,,89327.0
Antarctica,AY,AYM00089329,-83.0,-121.383,945.0,,HARRY,GSN,,89329.0
Antarctica,AY,AYM00089345,-81.65,-148.783,620.0,,SIPLE DOME,GSN,,89345.0
Antarctica,AY,AYM00089376,-79.983,-178.6,55.0,,GILL,GSN,,89376.0
Antarctica,AY,AYM00089377,-82.517,-174.45,55.0,,LETTAU,GSN,,89377.0
Antarctica,AY,AYM00089512,-70.767,11.833,119.0,,NOVOLAZAREVSKAJA,GSN,,89512.0
Antarctica,AY,AYM00089532,-69.0,39.583,21.0,,SYOWA,GSN,,89532.0
Antarctica,AY,AYM00089564,-67.6,62.867,16.0,,MAWSON,GSN,,89564.0
Antarctica,AY,AYM00089571,-68.583,77.95,13.0,,DAVIS,GSN,,89571.0
Antarctica,AY,AYM00089573,-69.367,76.367,18.0,,ZHONGSHAN,GSN,,89573.0
Antarctica,AY,AYM00089574,-69.383,76.383,64.0,,PROGRESS,GSN,,89574.0
Antarctica,AY,AYM00089577,-80.37,77.37,4084.0,,DOME PLATEAU DOME A,GSN,,89577.0
Antarctica,AY,AYM00089592,-66.55,93.017,40.0,,MIRNYJ,GSN,,89592.0
Antarctica,AY,AYM00089606,-78.45,106.867,3488.0,,VOSTOK,GSN,,89606.0
Antarctica,AY,AYM00089611,-66.283,110.517,41.0,,CASEY,GSN,,89611.0
Antarctica,AY,AYM00089625,-75.1,123.4,3233.0,,CONCORDIA,GSN,,89625.0
Antarctica,AY,AYM00089642,-66.667,140.017,43.0,,DUMONT D'URVILLE,GSN,,89642.0
Antarctica,AY,AYM00089662,-74.7,164.1,92.0,,BASE BAIA TERRA NOVA,GSN,,89662.0
Antarctica,AY,AYM00089664,-77.8833,166.7333,24.1,,MCMURDO SOUND NAF,GSN,,89664.0
Antarctica,AY,AYM00089744,-74.017,43.05,3353.0,,RELAY STAT,GSN,,89744.0
Antarctica,AY,AYM00089828,-75.117,123.367,3250.0,,DOME C II,GSN,,89828.0
Antarctica,AY,AYM00089865,-76.133,168.383,274.0,,WHITLOCK,GSN,,89865.0
Antarctica,AY,AYM00089869,-79.95,165.117,75.0,,MARILYN,GSN,,89869.0
Antarctica,AY,AYM00089872,-77.9,170.817,45.0,,FERRELL,GSN,,89872.0
Antarctica,AY,AYM00089879,-71.883,171.2,30.0,,POSSESSION IS,GSN,,89879.0
Antarctica,AY,AYW00087602,-77.4167,163.6833,48.2,,MARBLE POINT,GSN,,89866.0
Antarctica,AY,AYW00090001,-90.0,0.0,-999.9,,AMUNDSEN-SCOTT,GSN,,89009.0
Bahrain,BA,BA000041150,26.267,50.65,2.0,,BAHRAIN (INT. AIRPO,GSN,,41150.0
Barbados,BB,BB000078954,13.067,-59.483,52.0,,GRANTLEY ADAMS,GSN,,78954.0
Botswana,BC,BC000068032,-19.983,23.417,943.0,,MAUN,GSN,,68032.0
Bermuda [United Kingdom],BD,BDM00078016,32.3667,-64.6833,6.1,,L F WADE INTL AP KINDLEY FLD,GSN,,78016.0
Belgium,BE,BE000006447,50.8,4.35,104.0,,UCCLE,GSN,,6447.0
"Bahamas, The",BF,BF000078073,25.05,-77.467,5.0,,NASSAU AIRPORT NEW,GSN,,78073.0
Bosnia and Herzegovina,BK,BKM00014652,44.0667,18.2667,2067.0,,BJELASNICA,GSN,,14652.0
Bolivia,BL,BL000085041,-11.03,-68.78,-999.9,,COBIJA,GSN,,85041.0
Bolivia,BL,BL000085043,-11.0,-66.117,141.0,,RIBERALTA,GSN,,85043.0
Bolivia,BL,BL000085114,-13.333,-64.117,140.0,,MAGDALENA,GSN,,85114.0
Bolivia,BL,BL000085141,-14.47,-67.57,-999.9,,RURRENABAQUE,GSN,,85141.0
Bolivia,BL,BL000085223,-17.42,-66.18,-999.9,,COCHABAMBA,GSN,,85223.0
Bolivia,BL,BL000085230,-17.58,-69.6,-999.9,,CHARANA,GSN,,85230.0
Bolivia,BL,BL000085364,-21.55,-64.7,1854.0,,TARIJA,GSN,,85364.0
Bolivia,BL,BL000085365,-21.95,-63.65,-999.9,,YACUIBA,GSN,,85365.0
Bolivia,BL,BLM00085207,-16.367,-60.95,413.0,,SAN IGNACIO VELASCO,GSN,,85207.0
Bolivia,BL,BLM00085289,-18.975,-57.821,133.8,,TTE DE AV SALVADOR OGAYA G,GSN,,85289.0
Burma,BM,BMM00048042,21.983,96.1,76.0,,MANDALAY,GSN,,48042.0
Burma,BM,BMM00048062,20.133,92.873,8.2,,SITTWE,GSN,,48062.0
Burma,BM,BMM00048097,16.907,96.133,33.2,,YANGON INTL,GSN,,48097.0
Benin,BN,BN000065306,11.133,2.933,292.0,,KANDI,GSN,,65306.0
Benin,BN,BN000065335,8.032,2.467,200.0,,SAVE,GSN,,65335.0
Belarus,BO,BOM00033038,52.25,29.8331,142.0,,VASILEVICI,GSN,,33038.0
Solomon Islands,BP,BP000091503,-8.333,157.267,3.0,,MUNDA,GSN,,91503.0
Solomon Islands,BP,BPW00080601,-9.4333,160.05,10.1,,GUADALCANAL AAF,GSN,,91520.0
Brazil,BR,BR000082704,-7.633,-72.667,194.0,,CRUZEIRO DO SUL,GSN,,82704.0
Brazil,BR,BR000083361,-15.55,-56.117,151.0,,CUIABA,GSN,,83361.0
Brazil,BR,BR001746006,-17.66,-46.35,0.0,,PONTE DA BR-040 - PRATA,GSN,,83481.0
Brazil,BR,BR002549075,-25.417,-49.267,932.0,,CURITIBA,GSN,,83842.0
Brazil,BR,BR00E3-0070,-23.5,-46.617,792.0,,SAO PAULO,GSN,,83781.0
Brazil,BR,BR036190520,-5.5,-45.267,153.0,,BARRA DO CORDA,GSN,,82571.0
Brazil,BR,BR038014410,-5.2,-39.3,212.0,,QUIXERAMOBIM,GSN,,82586.0
Brazil,BR,BR047403040,-12.15,-45.0,439.0,,BARREIRAS,GSN,,83236.0
Brazil,BR,BR048620980,-13.017,-38.517,51.0,,SALVADOR,GSN,,83229.0
Brazil,BR,BR058514530,-17.733,-39.25,3.0,,CARAVELAS,GSN,,83498.0
Brazil,BR,BRM00082024,2.817,-60.65,90.0,,BOA VISTA,GSN,,82024.0
Brazil,BR,BRM00082106,-0.133,-67.083,90.0,,SAO GABRIEL DA CACH,GSN,,82106.0
Brazil,BR,BRM00082113,-0.981,-62.92,34.1,,BARCELOS,GSN,,82113.0
Brazil,BR,BRM00082331,-3.133,-60.017,72.0,,MANAUS,GSN,,82331.0
Brazil,BR,BRM00082410,-4.383,-70.033,65.0,,BENJAMIN CONSTANT,GSN,,82410.0
Brazil,BR,BRM00082425,-4.083,-63.133,46.0,,COARI,GSN,,82425.0
Brazil,BR,BRM00083064,-10.717,-48.583,239.0,,PORTO NACIONAL,GSN,,83064.0
Brazil,BR,BRM00083264,-12.2,-56.5,415.0,,GLEBA CELESTE,GSN,,83264.0
Burundi,BY,BY000064397,-2.833,30.333,1755.0,,MUYINGA,GSN,,64397.0
Canada,CA,CA001026270,50.6833,-127.3667,22.0,BC,PORT HARDY A,GSN,,71109.0
Canada,CA,CA001032731,49.3833,-126.55,7.0,BC,ESTEVAN POINT CS,GSN,,71894.0
Canada,CA,CA001096631,53.0333,-122.5,545.0,BC,QUESNEL AIRPORT AUTO,GSN,,71779.0
Canada,CA,CA001163842,50.7,-120.45,345.0,BC,KAMLOOPS AUT,GSN,,71741.0
Canada,CA,CA001192940,58.8333,-122.6,382.0,BC,FORT NELSON A,GSN,,71945.0
Canada,CA,CA00119BLM0,58.4333,-130.0333,802.0,BC,DEASE LAKE (AUT),GSN,,71222.0
Canada,CA,CA002100402,64.05,-139.1333,370.0,YT,DAWSON A,GSN,,71966.0
Canada,CA,CA002100693,63.25,-130.0333,1379.0,YT,MACMILLAN PASS,GSN,,71990.0
Canada,CA,CA002101204,60.1167,-128.8167,690.0,YT,WATSON LAKE (AUT),GSN,,71199.0
Canada,CA,CA002101310,60.7333,-135.1,707.0,YT,WHITEHORSE AUTO,GSN,,71773.0
Canada,CA,CA002201903,62.7167,-109.1667,168.0,NT,FORT RELIANCE (AUT),GSN,,71160.0
Canada,CA,CA002202102,61.7667,-121.2333,168.0,NT,FORT SIMPSON CLIMATE,GSN,,71365.0
Canada,CA,CA002202202,60.0333,-111.9333,203.0,NT,FORT SMITH CLIMATE,GSN,,71362.0
Canada,CA,CA002202402,60.8333,-115.7833,164.0,NT,HAY RIVER CLIMATE,GSN,,71361.0
Canada,CA,CA002202578,68.3167,-133.5167,103.0,NT,INUVIK CLIMATE,GSN,,71364.0
Canada,CA,CA002202810,65.2833,-126.75,94.0,NT,NORMAN WELLS CLIMATE,GSN,,71480.0
Canada,CA,CA002203058,69.35,-124.0833,6.0,NT,PAULATUK,GSN,,71984.0
Canada,CA,CA002300501,64.3167,-96.0,51.0,NU,BAKER LAKE CLIMATE,GSN,,71356.0
Canada,CA,CA002300904,67.8167,-115.1333,23.0,NU,KUGLUKTUK CLIMATE,GSN,,71332.0
Canada,CA,CA002301000,64.2,-83.3667,62.0,NU,CORAL HARBOUR A,GSN,,71915.0
Canada,CA,CA002301102,61.1333,-100.8833,353.0,NU,ENNADAI LAKE (AUT),GSN,,71923.0
Canada,CA,CA002301153,61.1,-94.0667,10.0,NU,ARVIAT CLIMATE,GSN,,71322.0
Canada,CA,CA002302340,68.6333,-95.85,42.0,NU,GJOA HAVEN CLIMATE,GSN,,71363.0
Canada,CA,CA002303094,68.5333,-89.8,16.0,NU,KUGAARUK CLIMATE,GSN,,71407.0
Canada,CA,CA002303610,65.1,-102.4333,244.0,NU,ROBERTSON LAKE (AUT),GSN,,71490.0
Canada,CA,CA002400305,82.5,-62.3333,65.0,NU,ALERT CLIMATE,GSN,,71355.0
Canada,CA,CA002400404,73.0,-85.0167,10.0,NU,ARCTIC BAY CS,GSN,,71592.0
Canada,CA,CA002400573,67.55,-64.0333,6.0,NU,QIKIQTARJUAQ CLIMATE,GSN,,71357.0
Canada,CA,CA002400602,69.1,-105.1333,19.0,NU,CAMBRIDGE BAY GSN,GSN,,71288.0
Canada,CA,CA002400636,64.2333,-76.5333,50.0,NU,CAPE DORSET CLIMATE,GSN,,71575.0
Canada,CA,CA002400802,70.4833,-68.5167,27.0,NU,CLYDE RIVER CLIMATE,GSN,,71358.0
Canada,CA,CA002401200,79.9833,-85.9333,10.0,NU,EUREKA,GSN,,71917.0
Canada,CA,CA002402353,68.7833,-81.25,8.0,NU,HALL BEACH CLIMATE,GSN,,71320.0
Canada,CA,CA002402592,63.75,-68.55,34.0,NU,IQALUIT CLIMATE,GSN,,71321.0
Canada,CA,CA002402604,78.8,-103.55,58.0,NU,ISACHSEN (AUT),GSN,,71074.0
Canada,CA,CA002403049,66.15,-65.7167,23.0,NU,PANGNIRTUNG,GSN,,71826.0
Canada,CA,CA002403204,72.7,-77.95,65.0,NU,POND INLET CLIMATE,GSN,,71576.0
Canada,CA,CA002403505,74.7167,-94.9833,30.0,NU,RESOLUTE CS,GSN,,71018.0
Canada,CA,CA002403756,73.7667,-105.3,11.0,NU,STEFANSSON ISLAND,GSN,,71017.0
Canada,CA,CA002403945,65.8833,-89.45,18.0,NU,WAGER BAY (AUT),GSN,,71049.0
Canada,CA,CA002502505,70.7667,-117.8,30.0,NT,HOLMAN CS,GSN,,71029.0
Canada,CA,CA002503648,72.0,-125.25,88.0,NT,SACHS HARBOUR CLIMATE,GSN,,71467.0
Canada,CA,CA00250M001,76.2333,-119.35,2.0,NT,MOULD BAY CS,GSN,,71989.0
Canada,CA,CA003034485,50.0333,-110.7167,715.0,AB,MEDICINE HAT RCS,GSN,,71026.0
Canada,CA,CA003050519,51.2,-115.55,1397.0,AB,BANFF CS,GSN,,71122.0
Canada,CA,CA003062696,56.65,-111.2167,369.0,AB,FORT MCMURRAY CS,GSN,,71585.0
Canada,CA,CA003066002,55.3,-114.7833,583.0,AB,SLAVE LAKE AWOS A,GSN,,71069.0
Canada,CA,CA003073140,58.6167,-117.1667,338.0,AB,HIGH LEVEL,GSN,,71066.0
Canada,CA,CA003081680,54.4167,-110.2833,541.0,AB,COLD LAKE A,GSN,,71120.0
Canada,CA,CA004012400,49.2167,-102.9667,581.0,SK,ESTEVAN A,GSN,,71862.0
Canada,CA,CA004028060,50.2667,-107.7333,825.0,SK,SWIFT CURRENT CDA,GSN,,71446.0
Canada,CA,CA004056240,53.2167,-105.6667,428.0,SK,PRINCE ALBERT A,GSN,,71869.0
Canada,CA,CA004064149,55.15,-105.2667,379.0,SK,LA RONGE RCS,GSN,,71586.0
Canada,CA,CA005030203,52.3667,-97.0167,222.0,MB,BERENS RIVER CS,GSN,,71158.0
Canada,CA,CA005040681,51.1,-100.05,305.0,MB,DAUPHIN CS,GSN,,71550.0
Canada,CA,CA005052890,53.9667,-101.1,274.0,MB,THE PAS CLIMATE,GSN,,71695.0
Canada,CA,CA005060608,58.7333,-94.0667,29.0,MB,CHURCHILL CLIMATE,GSN,,71696.0
Canada,CA,CA005062922,55.8,-97.8667,223.0,MB,THOMPSON A,GSN,,71079.0
Canada,CA,CA006010739,53.8167,-89.9,222.0,ON,BIG TROUT LAKE READAC,GSN,,71844.0
Canada,CA,CA006016295,54.9833,-85.4333,53.0,ON,PEAWANUCK (AUT),GSN,,71434.0
Canada,CA,CA006037775,50.1167,-91.9,383.0,ON,SIOUX LOOKOUT A,GSN,,71842.0
Canada,CA,CA006073980,49.4,-82.45,218.0,ON,KAPUSKASING CDA ON,GSN,,71299.0
Canada,CA,CA006075435,51.3,-80.6167,9.0,ON,MOOSONEE RCS,GSN,,71309.0
Canada,CA,CA006092920,45.8833,-82.5667,189.0,ON,GORE BAY CLIMATE,GSN,,71956.0
Canada,CA,CA007034482,46.2667,-76.0,200.0,QC,MANIWAKI AIRPORT,GSN,,71721.0
Canada,CA,CA007045401,50.1833,-61.8,11.0,QC,NATASHQUAN A,GSN,,71813.0
Canada,CA,CA007047914,50.2167,-66.25,53.0,QC,SEPT-ILES,GSN,,71279.0
Canada,CA,CA007054096,47.35,-70.0333,31.0,QC,LA POCATIERE,GSN,,71713.0
Canada,CA,CA007060400,48.3333,-71.0,159.0,QC,BAGOTVILLE A,GSN,,71727.0
Canada,CA,CA007093715,53.6333,-77.7,195.0,QC,LA GRANDE RIVIERE A,GSN,,71827.0
Canada,CA,CA007093GJ5,53.75,-73.6833,306.0,QC,LA GRANDE IV,GSN,,71823.0
Canada,CA,CA007103282,58.4667,-78.0833,24.0,QC,INUKJUAK UA,GSN,,71907.0
Canada,CA,CA007113534,58.1,-68.4167,40.0,QC,KUUJJUAQ A,GSN,,71906.0
Canada,CA,CA007116505,57.9167,-72.9833,171.0,QC,RIVIERE AUX FEUILLES,GSN,,71743.0
Canada,CA,CA007117825,54.8,-66.8167,522.0,QC,SCHEFFERVILLE A,GSN,,71828.0
Canada,CA,CA008204700,43.9333,-60.0167,5.0,NS,SABLE ISLAND,GSN,,71600.0
Canada,CA,CA008206495,43.8333,-66.0833,43.0,NS,YARMOUTH A,GSN,,71603.0
Canada,CA,CA00830P001,46.35,-63.1667,53.0,PE,HARRINGTON CDA CS,GSN,,71350.0
Canada,CA,CA008401400,50.2333,-57.5833,19.0,NL,DANIELS HARBOUR,GSN,,71185.0
Canada,CA,CA008401705,48.95,-54.5667,151.0,NL,GANDER AIRPORT CS,GSN,,71742.0
Canada,CA,CA008402450,47.5833,-58.9667,5.0,NL,ISLE AUX MORTS,GSN,,71197.0
Canada,CA,CA008501100,53.7167,-57.0333,14.0,NL,CARTWRIGHT,GSN,,71818.0
Canada,CA,CA008501900,53.3167,-60.4167,49.0,NL,GOOSE A,GSN,,71816.0
Canada,CA,CA008502799,56.55,-61.6833,8.0,NL,NAIN,GSN,,71665.0
Chad,CD,CD000004700,12.13,15.03,295.0,,NDJAMENA,GSN,,64700.0
Chad,CD,CD000064706,8.567,16.067,429.0,,MOUNDOU,GSN,,64706.0
Chad,CD,CD000064751,13.217,18.317,334.0,,ATI,GSN,,64751.0
Chad,CD,CD000064753,18.0,19.167,234.0,,FAYA,GSN,,64753.0
Chad,CD,CD000064754,11.033,20.283,436.0,,AM-TIMAN,GSN,,64754.0
Sri Lanka,CE,CE000043497,6.117,81.133,20.0,,HAMBANTOTA,GSN,,43497.0
Sri Lanka,CE,CE000434730,6.967,80.767,1880.0,,NUWARA ELIYA,GSN,,43473.0
Sri Lanka,CE,CEM00043466,6.9,79.867,7.0,,COLOMBO,GSN,,43466.0
Congo (Brazzaville),CF,CF000064459,1.617,18.067,327.0,,IMPFONDO,GSN,,64459.0
China,CH,CHM00050527,49.25,119.7,650.0,,HAILAR,GSN,,50527.0
China,CH,CHM00050745,47.383,123.917,148.0,,QIQIHAR,GSN,,50745.0
China,CH,CHM00051076,47.733,88.083,737.0,,ALTAY,GSN,,51076.0
China,CH,CHM00051463,43.8,87.65,947.0,,WU LU MU QI,GSN,,51463.0
China,CH,CHM00051709,39.467,75.983,1380.0,,KASHI,GSN,,51709.0
China,CH,CHM00051777,39.033,88.167,889.0,,RUOQIANG,GSN,,51777.0
China,CH,CHM00051828,37.133,79.933,1375.0,,HOTAN,GSN,,51828.0
China,CH,CHM00052203,42.817,93.517,739.0,,HAMI,GSN,,52203.0
China,CH,CHM00052533,39.767,98.483,1478.0,,JIUQUAN,GSN,,52533.0
China,CH,CHM00052836,36.3,98.1,3192.0,,DULAN,GSN,,52836.0
China,CH,CHM00052983,35.867,104.15,1875.0,,YU ZHONG,GSN,,52983.0
China,CH,CHM00053068,43.65,112.0,966.0,,ERENHOT,GSN,,53068.0
China,CH,CHM00053614,38.467,106.2,1112.0,,YINCHUAN,GSN,,53614.0
China,CH,CHM00054342,41.733,123.517,43.0,,SHENYANG,GSN,,54342.0
China,CH,CHM00054511,39.933,116.283,55.0,,BEIJING,GSN,,54511.0
China,CH,CHM00054857,36.067,120.333,77.0,,QINGDAO,GSN,,54857.0
China,CH,CHM00055591,29.667,91.133,3650.0,,LHASA,GSN,,55591.0
China,CH,CHM00056137,31.15,97.167,3307.0,,QAMDO,GSN,,56137.0
China,CH,CHM00056187,30.75,103.867,541.0,,WENJIANG,GSN,,56187.0
China,CH,CHM00056571,27.9,102.267,1599.0,,XICHANG,GSN,,56571.0
China,CH,CHM00056739,25.117,98.483,1649.0,,TENGCHONG,GSN,,56739.0
China,CH,CHM00056985,23.383,103.383,1302.0,,MENGZI,GSN,,56985.0
China,CH,CHM00057083,34.717,113.65,111.0,,ZHENGZHOU,GSN,,57083.0
China,CH,CHM00057461,30.7,111.3,134.0,,YICHANG,GSN,,57461.0
China,CH,CHM00057745,27.45,109.683,273.0,,ZHIJIANG,GSN,,57745.0
China,CH,CHM00057993,25.867,115.0,138.0,,GANZHOU,GSN,,57993.0
China,CH,CHM00058362,31.4,121.467,4.0,,SHANGHAI,GSN,,58362.0
China,CH,CHM00058606,28.6,115.917,50.0,,NANCHANG,GSN,,58606.0
China,CH,CHM00059287,23.217,113.483,71.0,,GUANGZHOU,GSN,,59287.0
China,CH,CHM00059316,23.4,116.683,3.0,,SHANTOU,GSN,,59316.0
China,CH,CHM00059431,22.633,108.217,126.0,,NANNING,GSN,,59431.0
China,CH,CHM00059758,20.0,110.25,24.0,,HAIKOU,GSN,,59758.0
Chile,CI,CI000085406,-18.35,-70.333,58.0,,ARICA,GSN,,85406.0
Chile,CI,CI000085442,-23.433,-70.45,140.0,,ANTOFAGASTA,GSN,,85442.0
Chile,CI,CI000085469,-27.167,-109.433,69.0,,ISLA DE PASCUA,GSN,,85469.0
Chile,CI,CI000085488,-29.917,-71.2,146.0,,LA SERENA,GSN,,85488.0
Chile,CI,CI000085543,-32.783,-71.517,5.0,,QUINTERO,GSN,,85577.0
Chile,CI,CI000085585,-33.633,-75.817,30.0,,JUAN FERNANDEZ,GSN,,85585.0
Chile,CI,CI000085629,-34.967,-71.233,225.0,,CURICO,GSN,,85629.0
Chile,CI,CI000085743,-38.75,-72.633,114.0,,TEMUCO,GSN,,85743.0
Chile,CI,CI000085799,-41.433,-73.1,90.0,,PUERTO MONTT,GSN,,85799.0
Chile,CI,CI000085874,-45.917,-71.7,525.0,,BALMACEDA,GSN,,85874.0
Chile,CI,CI000085934,-53.0,-70.967,37.0,,PUNTA ARENAS,GSN,,85934.0
Cayman Islands [United Kingdom],CJ,CJW00011813,19.3,-81.3667,2.1,,ROBERTS,GSN,,78384.0
Cocos (Keeling) Islands [Australia],CK,CK000096996,-12.183,96.833,4.0,,COCOS ISLAND AERO,GSN,,96996.0
Cameroon,CM,CM000064870,7.35,13.567,1104.0,,NGAOUNDERE,GSN,,64870.0
Colombia,CO,CO000080001,12.583,-81.717,6.0,,SAN ANDRES (ISLA)/S,GSN,,80001.0
Colombia,CO,CO000080222,4.701,-74.15,2548.0,,BOGOTA/ELDORADO,GSN,,80222.0
Colombia,CO,CO000080259,3.55,-76.383,969.0,,CALI/ALFONSO BONILL,GSN,,80259.0
Colombia,CO,CO000080342,1.417,-77.267,1826.0,,PASTO/ANTONIO NARIN,GSN,,80342.0
Costa Rica,CS,CS000081003,9.967,-83.017,3.0,,PUERTO LIMON,GSN,,78767.0
Cuba,CU,CUM00078310,21.867,-84.95,8.0,,CABO SAN ANTONIO   PINAR DEL,GSN,,78310.0
Cuba,CU,CUM00078325,23.167,-82.35,50.0,,CASA BLANCA   LA HABANA,GSN,,78325.0
Cuba,CU,CUM00078355,21.4,-77.85,122.0,,CAMAGUEY  CAMAGUEY,GSN,,78355.0
Cuba,CU,CUM00078369,20.25,-74.15,10.0,,PUNTA DE MAISI   GUANTANAMO,GSN,,78369.0
Cape Verde,CV,CVM00008583,16.883,-25.0,63.0,,MINDELO,GSN,,8583.0
Cook Islands [New Zealand],CW,CWM00091843,-21.203,-159.806,5.8,,RAROTONGA INTL,GSN,,91843.0
Cyprus,CY,CY000176090,34.8831,33.6331,1.0,,LARNACA,GSN,,17609.0
Denmark,DA,DA000030380,55.6831,12.5331,9.0,,KOEBENHAVN: LANDBOHOJSKOLEN-1,GSN,,6186.0
Denmark,DA,DAM00006011,62.02,-6.77,54.0,,TORSHAVN,GSN,,6011.0
Ecuador,EC,EC000000006,-1.1,-79.467,73.0,,PICHILINGUE,GSN,,84140.0
Ecuador,EC,ECM00084008,-0.917,-89.617,18.9,,SAN CRISTOBAL,GSN,,84008.0
Ecuador,EC,ECM00084088,-0.35,-78.55,3058.0,,IZOBAMBA,GSN,,84088.0
Ecuador,EC,ECM00084270,-4.033,-79.2,2160.0,,LOJA/LA ARGELIA,GSN,,84270.0
Egypt,EG,EG000062306,31.3331,27.2167,25.0,,MERSA MATRUH,GSN,,62306.0
Egypt,EG,EG000062414,23.9667,32.7831,200.0,,ASSWAN,GSN,,62414.0
Egypt,EG,EG000062417,29.2,25.3167,-15.0,,SIWA,GSN,,62417.0
Egypt,EG,EG000062463,27.15,33.7167,16.0,,HURGUADA,GSN,,62463.0
Egypt,EG,EG000624200,28.3331,28.9,127.0,,BAHARIA,GSN,,62420.0
Egypt,EG,EGM00062378,29.867,31.333,141.0,,HELWAN,GSN,,62378.0
Egypt,EG,EGM00062435,25.45,30.533,73.0,,KHARGA,GSN,,62435.0
Ireland,EI,EI000003953,51.9394,-10.2219,9.0,,VALENTIA OBSERVATORY,GSN,,3953.0
Ireland,EI,EI000003980,55.3717,-7.34,21.0,,MALIN HEAD,GSN,,3980.0
Estonia,EN,EN000026242,58.2639,26.4614,70.0,,TARTU-TORAVERE,GSN,,26242.0
Eritrea,ER,ER000063021,15.283,38.917,2325.0,,ASMARA,GSN,,63021.0
El Salvador,ES,ES000078650,13.567,-89.833,15.0,,ACAJUTLA,GSN,,78650.0
Ethiopia,ET,ET000063403,8.15,35.533,2002.0,,GORE,GSN,,63403.0
Ethiopia,ET,ET000063450,9.033,38.75,2354.0,,ADDIS ABABA-BOLE,GSN,,63450.0
Ethiopia,ET,ET000063453,8.87,39.9,930.0,,METEHARA,GSN,,63453.0
Ethiopia,ET,ET000063533,5.33,39.57,1544.0,,NEGHELLE,GSN,,63533.0
Europa Island [France],EU,EUM00061972,-22.333,40.333,6.0,,ILE EUROPA,GSN,,61972.0
Czech Republic,EZ,EZ000011464,50.5544,13.9314,833.0,,MILESOVKA,GSN,,11464.0
French Guiana [France],FG,FG000081405,4.833,-52.367,9.0,,ROCHAMBEAU,GSN,,81405.0
Finland,FI,FI000002401,62.4019,25.6783,139.0,,JYVASKYLA LENTOASEMA,GSN,,2935.0
Finland,FI,FI000002963,60.8139,23.5006,104.0,,JOKIOINEN JOKIOISTEN OBSERVATO,GSN,,2963.0
Finland,FI,FI000007501,67.3678,26.6328,179.0,,SODANKYLA AWS,GSN,,2836.0
Fiji,FJ,FJM00091650,-12.4825,177.0692,22.0,,Rotuma,GSN,,91650.0
Fiji,FJ,FJM00091652,-16.1411,-179.9947,63.0,,Udu Point,GSN,,91652.0
Fiji,FJ,FJM00091680,-17.7597,177.4447,22.0,,Nadi Airport,GSN,,91680.0
Fiji,FJ,FJM00091699,-20.6588,-178.7225,27.0,,Ono-I-Lau,GSN,,91699.0
Falkland Islands (Islas Malvinas) [United Kingdom],FK,FKM00088889,-51.823,-58.447,74.4,,MOUNT PLEASANT,GSN,,88889.0
Federated States of Micronesia,FM,FMW00040308,9.4833,138.0833,13.4,FM,YAP ISLAND WSO AP,GSN,,91413.0
Federated States of Micronesia,FM,FMW00040504,6.9667,158.2167,36.6,FM,POHNPEI WSO,GSN,,91348.0
Federated States of Micronesia,FM,FMW00040505,7.4667,151.85,1.5,FM,CHUUK WSO AP,GSN,,91334.0
French Polynesia,FP,FP000091925,-9.8,-139.033,53.0,,HIVA-OA,GSN,,91925.0
French Polynesia,FP,FP000091938,-17.55,-149.617,3.0,,TAHITI-FAAA,GSN,,91938.0
French Polynesia,FP,FP000091943,-14.483,-145.033,3.0,,TAKAROA,GSN,,91943.0
French Polynesia,FP,FP000091948,-23.133,-134.967,89.0,,MANGAREVA,GSN,,91948.0
French Polynesia,FP,FP000091954,-23.35,-149.483,3.0,,TUBUAI,GSN,,91954.0
French Polynesia,FP,FP000091958,-27.617,-144.333,2.0,,RAPA,GSN,,91958.0
French Polynesia,FP,FPM00091945,-19.9,-145.0,4.0,,HEREHERETUE,GSN,,91945.0
France,FR,FR000007130,48.0689,-1.7339,36.0,,RENNES-ST JACQUES,GSN,,7130.0
France,FR,FR000007190,48.5492,7.6403,150.0,,STRASBOURG-ENTZHEIM,GSN,,7190.0
France,FR,FR000007255,47.0592,2.3594,161.0,,BOURGES,GSN,,7255.0
France,FR,FR000007560,44.1167,3.5831,1567.0,,MONT-AIGOUAL,GSN,,7560.0
France,FR,FR000007630,43.6208,1.3789,151.0,,TOULOUSE-BLAGNAC,GSN,,7630.0
France,FR,FR000007650,43.4378,5.2158,9.0,,MARSEILLES-MARIGNANE,GSN,,7650.0
France,FR,FRM00061998,-49.35,70.25,30.0,,PORT-AUX-FRANCAIS (ILES KERGU,GSN,,61998.0
French Southern and Antarctic Lands [France],FS,FSM00061996,-37.8,77.5,29.0,,MARTIN DE VIVIES (I,GSN,,61996.0
French Southern and Antarctic Lands [France],FS,FSM00061997,-46.433,51.85,142.0,,ALFRED FAURE (ILES CROZET),GSN,,61997.0
Greenland [Denmark],GL,GL000004250,64.1667,-51.75,80.0,,NUUK,GSN,,4250.0
Greenland [Denmark],GL,GL000004320,76.77,-18.67,12.0,,DANMARKSHAVN,GSN,,4320.0
Greenland [Denmark],GL,GL000004360,65.5997,-37.6331,50.0,,TASIILAQ,GSN,,4360.0
Greenland [Denmark],GL,GLE00146908,72.7831,-56.1331,126.0,,MITT. UPERNAVIK,GSN,,4211.0
Greenland [Denmark],GL,GLM00004390,60.0331,-43.1167,26.0,,IKERASASSUAQ,GSN,,4390.0
Germany,GM,GM000010147,53.635,9.99,11.0,,HAMBURG FUHLSBUETTEL,GSN,,10147.0
Germany,GM,GM000010393,52.2094,14.1203,98.0,,LINDENBERG,GSN,,10393.0
Germany,GM,GM000010962,47.8017,11.0117,977.0,,HOHENPEISSENBERG,GSN,,10962.0
Germany,GM,GMW00035032,50.0333,8.5833,112.2,,RHEIN MAIN,GSN,,10637.0
Guadeloupe [France],GP,GP000078897,16.27,-61.6,11.0,,"LE RAIZET, GUADELOUPE",GSN,,78897.0
Guam [United States],GQ,GQW00041406,13.4333,144.8,77.4,GU,GUAM INTERNATIONAL AIRPORT,GSN,,91212.0
Greece,GR,GR000016641,39.6167,19.9167,11.0,,CORFU,GSN,,16641.0
Greece,GR,GR000016734,36.8331,21.7,52.0,,METHONI,GSN,,16734.0
Greece,GR,GR000167230,37.7,26.9167,2.0,,SAMOS AIRPORT,GSN,,16723.0
Greece,GR,GR000167460,35.4831,24.1167,146.0,,SOUDA AIRPORT,GSN,,16746.0
Croatia,HR,HR000142360,45.8167,15.9781,157.0,,ZAGREB-GRIC,GSN,,14236.0
Hungary,HU,HU000012942,46.0056,18.2328,203.0,,PECS POGANY,GSN,,12942.0
Iceland,IC,IC000004013,65.0739,-22.7333,13.0,,STYKKISHOLMUR,GSN,,4013.0
Iceland,IC,IC000004030,64.1269,-21.9025,52.0,,REYKJAVIK,GSN,,4030.0
Iceland,IC,IC000004048,63.4,-20.2831,118.0,,VESTMANNAEYJAR,GSN,,4048.0
Iceland,IC,IC000004063,65.68,-18.0794,27.0,,AKUREYRI,GSN,,4063.0
Indonesia,ID,ID000096073,1.55,98.883,3.0,,SIBOLGA/PINANGSORI,GSN,,96073.0
Indonesia,ID,ID000096145,3.2,106.25,3.0,,TAREMPA,GSN,,96145.0
Indonesia,ID,ID000096163,-0.883,100.35,3.0,,PADANG/TABING,GSN,,96163.0
Indonesia,ID,ID000096745,-6.183,106.833,8.0,,JAKARTA/OBSERVATORY,GSN,,96745.0
Indonesia,ID,ID000096805,-7.733,109.017,6.0,,CILACAP,GSN,,96805.0
Indonesia,ID,ID000096925,-5.85,112.633,3.0,,SANGKAPURA (BAWEAN,GSN,,96925.0
Indonesia,ID,ID000097014,1.533,124.917,80.0,,MENADO/ SAM RATULAN,GSN,,97014.0
Indonesia,ID,ID000097146,-4.1,122.433,50.0,,KENDARI/WOLTER MONG,GSN,,97146.0
Indonesia,ID,ID000097340,-9.667,120.333,12.0,,WAINGAPU/MAU HAU,GSN,,97340.0
Indonesia,ID,ID000097372,-10.167,123.667,108.0,,KUPANG/ELTARI,GSN,,97372.0
Indonesia,ID,ID000097502,-0.933,131.117,3.0,,SORONG/JEFMAN,GSN,,97502.0
Indonesia,ID,ID000097560,-1.183,136.117,11.0,,BIAK/FRANS KAISIEPO,GSN,,97560.0
Indonesia,ID,ID000097686,-4.067,138.95,1660.0,,WAMENA,GSN,,97686.0
Indonesia,ID,ID000097690,-2.567,140.483,99.0,,JAYAPURA/SENTANI,GSN,,97690.0
Indonesia,ID,ID000097724,-3.7,128.083,12.0,,AMBON/PATTIMURA,GSN,,97724.0
Indonesia,ID,ID000097900,-7.983,131.3,24.0,,SAUMLAKI/OLILIT,GSN,,97900.0
Indonesia,ID,ID000097980,-8.467,140.383,3.0,,MERAUKE/MOPAH,GSN,,97980.0
Indonesia,ID,IDM00097240,-8.75,116.267,96.0,,MATARAM-LOMBOK INTL AIRPORT,GSN,,97240.0
India,IN,IN001080500,17.45,78.47,527.0,,BEGUMPET        OBSY,GSN,,43128.0
India,IN,IN003041800,26.1,91.583,54.0,,GAUHATI,GSN,,42410.0
India,IN,IN004091000,24.05,84.067,221.0,,DALTONGANJ,GSN,,42587.0
India,IN,IN005030100,24.2,72.2,136.0,,DEESA,GSN,,42539.0
India,IN,IN005090100,22.367,69.083,11.0,,DWARKA,GSN,,42731.0
India,IN,IN007101600,31.1,77.167,2202.0,,SHIMLA,GSN,,42083.0
India,IN,IN008010200,34.083,74.833,1587.0,,SRINAGAR,GSN,,42027.0
India,IN,IN009010100,12.967,77.583,921.0,,BANGALORE,GSN,,43295.0
India,IN,IN011020300,19.083,82.033,553.0,,JAGDALPUR,GSN,,43041.0
India,IN,IN011060800,22.767,81.9,625.0,,PENDRA ROAD,GSN,,42779.0
India,IN,IN011330900,23.85,78.75,551.0,,SAGAR,GSN,,42671.0
India,IN,IN012190100,18.533,73.85,559.0,,POONA,GSN,,43063.0
India,IN,IN014020800,25.25,91.733,1313.0,,CHERRAPUNJI,GSN,,42515.0
India,IN,IN019070100,28.0,73.3,224.0,,BIKANER,GSN,,42165.0
India,IN,IN020040900,13.0,80.183,16.0,,MADRAS/MINAMBAKKAM,GSN,,43279.0
India,IN,IN020081000,10.233,77.467,2343.0,,KODAIKANAL,GSN,,43339.0
India,IN,IN020100400,9.267,79.3,11.0,,PAMBAN,GSN,,43363.0
India,IN,IN022021900,28.583,77.2,216.0,,NEW DELHI/SAFDARJUN,GSN,,42182.0
India,IN,IN024050100,27.05,88.267,2128.0,,DARJEELING,GSN,,42295.0
India,IN,IN025010100,8.3,73.0,2.0,,MINICOY         OBSY,GSN,,43369.0
India,IN,IN099999901,11.667,92.717,79.0,,PORT BLAIR,GSN,,43333.0
Iran,IR,IR000040706,38.08,46.28,1361.0,,TABRIZ,GSN,,40706.0
Iran,IR,IR000040745,36.267,59.633,999.0,,MASHHAD,GSN,,40745.0
Iran,IR,IR000040841,30.25,56.967,1754.0,,KERMAN,GSN,,40841.0
Iran,IR,IR000040848,29.533,52.533,1481.0,,SHIRAZ,GSN,,40848.0
Iran,IR,IR000407540,35.683,51.317,1191.0,,TEHRAN-MEHRABAD,GSN,,40754.0
Iran,IR,IR000407660,34.267,47.117,1322.0,,KERMANSHAH,GSN,,40766.0
Iran,IR,IR000408560,29.476,60.907,1378.0,,ZAHEDAN,GSN,,40856.0
Israel,IS,IS000009972,29.55,34.95,12.0,,ELAT,GSN,,40199.0
Italy,IT,IT000016134,44.2,10.7,2165.0,,MONTE CIMONE,GSN,,16134.0
Italy,IT,IT000016550,39.93,9.72,138.0,,CAPO BELLAVISTA,GSN,,16550.0
Italy,IT,IT000160220,46.15,11.0331,2125.0,,PAGANELLA,GSN,,16022.0
Italy,IT,IT000162240,42.0828,12.2167,266.0,,VIGNA DI VALLE,GSN,,16224.0
Italy,IT,IT000162580,41.7,15.95,844.0,,MONTE S. ANGELO,GSN,,16258.0
Cote D'Ivoire,IV,IV000065585,5.3,-3.3,39.0,,ADIAKE,GSN,,65585.0
Cote D'Ivoire,IV,IV000065599,4.95,-6.083,66.0,,SASSANDRA,GSN,,65599.0
Iraq,IZ,IZ000040665,32.17,46.05,15.0,,KUT-AL-HAI,GSN,,40665.0
Japan,JA,JA000047401,45.417,141.683,12.0,,WAKKANAI,GSN,,47401.0
Japan,JA,JA000047420,43.333,145.583,39.0,,NEMURO,GSN,,47420.0
Japan,JA,JA000047582,39.717,140.1,7.0,,AKITA,GSN,,47582.0
Japan,JA,JA000047600,37.4,136.9,15.0,,WAJIMA,GSN,,47600.0
Japan,JA,JA000047648,35.733,140.85,28.0,,CHOSHI,GSN,,47648.0
Japan,JA,JA000047778,33.45,135.75,76.0,,SHIONOMISAKI,GSN,,47778.0
Japan,JA,JA000047815,33.233,131.617,13.0,,OITA,GSN,,47815.0
Japan,JA,JA000047817,32.732,129.866,35.0,,NAGASAKI,GSN,,47817.0
Japan,JA,JA000047927,24.817,125.133,16.0,,SHIMOJISHIMA,GSN,,47927.0
Japan,JA,JA000047936,26.2,127.683,53.0,,NAHA,GSN,,47936.0
Japan,JA,JA000047945,25.933,131.317,24.0,,KITADAITO,GSN,,47945.0
Japan,JA,JA000047971,27.1,142.183,8.0,,CHICHIJIMA,GSN,,47971.0
Japan,JA,JA000047991,24.3,153.967,6.1,,MINAMI TORI SHIMA MA,GSN,,47991.0
Jamaica,JM,JM000078388,18.5,-77.917,8.0,,MONTEGO BAY/SANGSTE,GSN,,78388.0
Jan Mayen [Norway],JN,JNM00001001,70.9331,-8.6667,10.0,,JAN MAYEN,GSN,,1001.0
Jordan,JO,JOM00040250,32.539,38.195,685.8,,H4,GSN,,40250.0
Jordan,JO,JOM00040310,30.167,35.783,1069.0,,MA'AN,GSN,,40310.0
Kenya,KE,KE000063612,3.117,35.617,515.0,,LODWAR,GSN,,63612.0
Kenya,KE,KE000063624,3.933,41.867,231.0,,MANDERA,GSN,,63624.0
Kenya,KE,KE000063661,1.016,35.0,1875.0,,KITALE,GSN,,63661.0
Kenya,KE,KE000063723,-0.467,39.633,147.0,,GARISSA,GSN,,63723.0
Kenya,KE,KE000063740,-1.317,36.917,1624.0,,JOMO KENYATTA INTL,GSN,,63740.0
Kenya,KE,KE000063820,-4.033,39.617,55.0,,MOMBASA,GSN,,63820.0
Kyrgyzstan,KG,KG000036974,41.4331,76.0,2041.0,,NARYN,GSN,,36974.0
Kyrgyzstan,KG,KG000038353,42.83,74.58,756.0,,BISHKEK,GSN,,38353.0
"Korea, North",KN,KNM00047014,41.783,126.883,331.0,,CHUNGGANG,GSN,,47014.0
Kiribati,KR,KR000091610,1.35,172.917,4.0,,TARAWA,GSN,,91610.0
"Korea, South",KS,KS000047112,37.467,126.633,70.0,,INCHEON,GSN,,47112.0
"Korea, South",KS,KS000047115,37.483,130.9,220.0,,ULLEUNGDO,GSN,,47115.0
"Korea, South",KS,KS000047165,34.817,126.383,39.0,,MOKPO,GSN,,47165.0
Christmas Island [Australia],KT,KT000096995,-10.45,105.683,262.0,,CHRISTMAS ISLAND AE,GSN,,96995.0
Kuwait,KU,KU000405820,29.222,47.966,48.0,,KUWAIT INTERNATIONA,GSN,,40582.0
Kazakhstan,KZ,KZ000028952,53.2167,63.6167,170.0,,KUSTANAI,GSN,,28952.0
Kazakhstan,KZ,KZ000029807,53.35,75.45,94.0,,IRTYSHSK,GSN,,29807.0
Kazakhstan,KZ,KZ000035078,51.8167,68.3667,304.0,,ATBASAR,GSN,,35078.0
Kazakhstan,KZ,KZ000035108,51.25,51.4,36.0,,URALSK,GSN,,35108.0
Kazakhstan,KZ,KZ000035394,49.8,73.15,553.0,,KARAGANDA,GSN,,35394.0
Kazakhstan,KZ,KZ000035416,49.0667,54.6831,128.0,,UIL,GSN,,35416.0
Kazakhstan,KZ,KZ000035796,46.8,75.0831,350.0,,BALHASH,GSN,,35796.0
Kazakhstan,KZ,KZ000035849,45.767,62.117,68.0,,KAZALINSK,GSN,,35849.0
Kazakhstan,KZ,KZ000035925,45.4,56.2,82.0,,SAM,GSN,,35925.0
Kazakhstan,KZ,KZ000036177,50.4167,80.3,196.0,,SEMEJ,GSN,,36177.0
Kazakhstan,KZ,KZ000036535,48.75,82.367,512.0,,KOKPEKTY,GSN,,36535.0
Kazakhstan,KZ,KZ000036859,44.1667,80.0667,645.0,,ZHARKENT,GSN,,36859.0
Kazakhstan,KZ,KZ000036870,43.2331,76.9331,851.0,,ALMATY,GSN,,36870.0
Latvia,LG,LG000026406,56.4831,21.0167,7.0,,LIEPAJA,GSN,,26406.0
Lithuania,LH,LH000026730,54.6331,25.1,156.0,,VILNIUS,GSN,,26730.0
Slovakia,LO,LO000011934,49.0667,20.2331,694.0,,POPRAD/TATRY,GSN,,11934.0
Luxembourg,LU,LU000006590,49.6258,6.2033,376.0,,LUXEMBOURG AIRPORT,GSN,,6590.0
Libya,LY,LY000062124,27.02,14.45,432.0,,SEBHA,GSN,,62124.0
Libya,LY,LY000062131,29.12,15.95,267.0,,HON,GSN,,62131.0
Libya,LY,LY000062271,24.22,23.3,436.0,,KUFRA,GSN,,62271.0
Libya,LY,LYE00147744,32.67,13.15,81.0,,TRIPOLI AIRPORT,GSN,,62010.0
Libya,LY,LYE00147747,32.08,20.27,132.0,,BENGHAZI BENINA,GSN,,62053.0
Madagascar,MA,MA000067009,-12.35,49.3,105.0,,ANTSIRANANA,GSN,,67009.0
Madagascar,MA,MA000067019,-14.633,47.767,57.0,,ANALALAVA,GSN,,67019.0
Madagascar,MA,MA000067083,-18.8,47.483,1276.0,,ANTANANARIVO/IVATO,GSN,,67083.0
Madagascar,MA,MA000067095,-18.117,49.4,6.0,,TOAMASINA,GSN,,67095.0
Madagascar,MA,MA000067143,-21.2,48.367,6.0,,MANANJARY,GSN,,67143.0
Madagascar,MA,MA000067161,-23.383,43.733,8.0,,TOLIARA,GSN,,67161.0
Madagascar,MA,MA000067197,-25.033,46.95,9.0,,TAOLAGNARO,GSN,,67197.0
Madagascar,MA,MAM00067025,-14.999,50.32,6.1,,ANTSIRABATO,GSN,,67025.0
Madagascar,MA,MAM00067073,-18.05,44.033,23.0,,MAINTIRANO,GSN,,67073.0
Moldova,MD,MD000033815,47.02,28.87,173.0,,KISINEV,GSN,,33815.0
Mayotte [France],MF,MFM00067005,-12.805,45.281,7.0,,DZAOUDZI PAMANDZI,GSN,,67005.0
Mongolia,MG,MG000044212,49.8,92.08,936.0,,ULAAN-GOM,GSN,,44212.0
Mongolia,MG,MG000044218,48.017,91.567,1405.0,,HOVD,GSN,,44218.0
Mongolia,MG,MG000044231,49.633,100.167,1283.0,,MUREN,GSN,,44231.0
Mongolia,MG,MG000044239,48.8,103.55,1208.0,,BULGAN,GSN,,44239.0
Mongolia,MG,MG000044259,48.083,114.55,747.0,,CHOIBALSAN,GSN,,44259.0
Mongolia,MG,MG000044272,47.75,96.85,1759.0,,ULIASTAI,GSN,,44272.0
Mongolia,MG,MG000044288,46.267,102.783,1813.0,,ARVAIHEER,GSN,,44288.0
Mongolia,MG,MG000044317,45.9,115.367,1076.0,,ERDENETSAGAAN,GSN,,44317.0
Mongolia,MG,MG000044341,45.767,106.283,1393.0,,MANDALGOBI,GSN,,44341.0
Mongolia,MG,MG000044373,43.583,104.417,1465.0,,DALANZADGAD,GSN,,44373.0
Malawi,MI,MI000067693,-15.683,34.967,767.0,,CHILEKA,GSN,,67693.0
Macedonia,MK,MK000013577,41.53,20.7,1321.0,,LAZAROPOLE,GSN,,13577.0
Mali,ML,ML000061202,20.2,0.983,491.0,,TESSALIT,GSN,,61202.0
Mali,ML,ML000061223,16.717,-3.0,264.0,,TOMBOUCTOU,GSN,,61223.0
Mali,ML,ML000061250,15.867,2.217,278.0,,MENAKA,GSN,,61250.0
Mali,ML,ML000061270,13.067,-9.467,334.0,,KITA,GSN,,61270.0
Mali,ML,ML000061297,11.35,-5.683,375.0,,SIKASSO,GSN,,61297.0
Morocco,MO,MO000060195,32.68,-4.73,1508.0,,MIDELT,GSN,,60195.0
Morocco,MO,MO000060265,30.93,-6.9,1139.0,,OUARZAZATE,GSN,,60265.0
Morocco,MO,MOW00013017,34.3,-6.6,12.2,,KENITRA PORT LYAUTEY,GSN,,60120.0
Mauritius,MP,MP000061974,-10.433,56.75,3.0,,AGALEGA,GSN,,61974.0
Mauritius,MP,MP000061986,-16.45,59.617,4.0,,ST. BRANDON (ST. RA,GSN,,61986.0
Mauritius,MP,MP000061988,-19.683,63.417,59.0,,RODRIGUES,GSN,,61988.0
Mauritius,MP,MP000061990,-20.433,57.683,57.0,,PLAISANCE (MAURITIU,GSN,,61990.0
Mauritania,MR,MR000061401,25.233,-11.617,360.0,,BIR MOGHREIN,GSN,,61401.0
Mauritania,MR,MR000061415,20.933,-17.033,3.0,,NOUADHIBOU,GSN,,61415.0
Mauritania,MR,MR000061421,20.517,-13.067,224.0,,ATAR,GSN,,61421.0
Mauritania,MR,MR000061450,18.567,-11.433,402.0,,TIDJIKJA,GSN,,61450.0
Mauritania,MR,MR000061497,16.6,-7.267,269.0,,NEMA,GSN,,61497.0
Malta,MT,MT000016597,35.85,14.4831,91.0,,LUQA,GSN,,16597.0
Oman,MU,MU000041254,23.067,57.633,1755.0,,SAIQ,GSN,,41254.0
Oman,MU,MU000041288,20.667,58.9,19.0,,MASIRAH,GSN,,41288.0
Oman,MU,MUM00041316,17.039,54.091,22.3,,SALALAH,GSN,,41316.0
Maldives,MV,MV000043555,4.2,73.533,2.0,,MALE,GSN,,43555.0
Mexico,MX,MXM00076225,28.6333,-106.0833,1428.0,,CHIHUAHUA,GSN,,76225.0
Mexico,MX,MXM00076311,26.7167,-108.3167,237.7,,CHOIX,GSN,,76311.0
Mexico,MX,MXM00076393,25.733,-100.3,515.0,,MONTERREY (CITY),GSN,,76393.0
Mexico,MX,MXM00076405,24.167,-110.3,18.0,,LA PAZ (CITY),GSN,,76405.0
Mexico,MX,MXM00076458,23.2,-106.417,4.0,,COLONIA JUAN CARRAS,GSN,,76458.0
Mexico,MX,MXM00076577,21.0,-101.283,1999.0,,GUANAJUATO,GSN,,76577.0
Mexico,MX,MXM00076644,20.983,-89.65,9.0,,AEROP.INTERNACIONAL,GSN,,76644.0
Mexico,MX,MXM00076654,19.05,-104.317,3.0,,MANZANILLO,GSN,,76654.0
Mexico,MX,MXM00076680,19.4,-99.183,2303.0,,MEXICO CITY,GSN,,76680.0
Mexico,MX,MXM00076692,19.15,-96.117,16.0,,HACIENDA YLANG YLANG VERACRUZ,GSN,,76692.0
Mexico,MX,MXM00076833,16.1667,-95.2,9.8,,SALINA CRUZ,GSN,,76833.0
Malaysia,MY,MY000048620,4.217,100.7,8.0,,SITIAWAN,GSN,,48620.0
Malaysia,MY,MY000048657,3.62,103.22,16.0,,KUANTAN,GSN,,48657.0
Malaysia,MY,MY000096413,1.483,110.333,27.0,,KUCHING,GSN,,96413.0
Malaysia,MY,MY000096441,3.2,113.033,5.0,,BINTULU,GSN,,96441.0
Malaysia,MY,MY000096465,5.3,115.25,30.0,,LABUAN,GSN,,96465.0
Malaysia,MY,MY000096491,5.9,118.067,13.0,,SANDAKAN,GSN,,96491.0
Mozambique,MZ,MZ000067215,-12.983,40.533,50.0,,PEMBA,GSN,,67215.0
Mozambique,MZ,MZ000067283,-17.883,36.883,16.0,,QUELIMANE,GSN,,67283.0
Mozambique,MZ,MZ000067297,-19.8,34.9,16.0,,BEIRA,GSN,,67297.0
Mozambique,MZ,MZ000067323,-23.867,35.383,15.0,,INHAMBANE,GSN,,67323.0
New Caledonia [France],NC,NC000091577,-20.567,164.283,18.0,,KOUMAC (NLLE-CALEDO,GSN,,91577.0
New Caledonia [France],NC,NC000915920,-22.267,166.45,72.0,,NOUMEA (NLLE-CALEDO,GSN,,91592.0
Niue [New Zealand],NE,NEM00091824,-19.083,-169.933,59.0,,HANAN AIRPORT,GSN,,91824.0
Norfolk Island [Australia],NF,NFM00094996,-29.042,167.939,113.1,,NORFOLK ISLAND INTL,GSN,,94996.0
Niger,NG,NG000061017,18.683,12.917,357.0,,BILMA,GSN,,61017.0
Niger,NG,NG000061024,16.967,7.967,505.0,,AGADEZ,GSN,,61024.0
Niger,NG,NG000061043,14.9,5.25,391.0,,TAHOUA,GSN,,61043.0
Niger,NG,NG000061096,13.233,11.983,337.0,,MAINE-SOROA,GSN,,61096.0
Vanuatu,NH,NH000091554,-15.517,167.217,44.0,,PEKOA AIRPORT (SANT,GSN,,91554.0
Vanuatu,NH,NH000091568,-20.233,169.767,7.0,,ANEITYUM,GSN,,91568.0
Nigeria,NI,NIM00065123,9.617,6.533,260.0,,MINNA,GSN,,65123.0
Nigeria,NI,NIM00065167,9.258,12.43,182.6,,YOLA,GSN,,65167.0
Netherlands,NL,NLM00006260,52.0989,5.1794,2.0,,DE BILT,GSN,,6260.0
Norway,NO,NO000001026,69.6539,18.9281,100.0,,TROMSO,GSN,,1026.0
Norway,NO,NO000001212,62.8667,6.5331,8.0,,ONA HUSOY,GSN,,1212.0
Norway,NO,NO000001465,58.3831,8.7917,12.0,,TORUNGEN FYR,GSN,,1465.0
Norway,NO,NO000011520,67.267,14.367,13.0,,BODO VI,GSN,,1152.0
Norway,NO,NO000014030,59.3,4.883,56.0,,UTSIRA FYR,GSN,,1403.0
Norway,NO,NO000098550,70.367,31.1,15.0,,VARDO,GSN,,1098.0
Norway,NO,NO000099710,74.5167,19.0167,16.0,,BJOERNOEYA,GSN,,1028.0
Norway,NO,NOM00001238,62.1167,9.2831,952.0,,FOKSTUA,GSN,,1238.0
Nepal,NP,NP000444540,27.7,85.367,1337.0,,KATHMANDU AIRPORT,GSN,,44454.0
New Zealand,NZ,NZ000093292,-38.65,177.983,5.0,,GISBORNE AERODROME,GSN,,93292.0
New Zealand,NZ,NZ000093417,-40.9,174.983,7.0,,PARAPARAUMU AWS,GSN,,93420.0
New Zealand,NZ,NZ000093844,-46.417,168.333,2.0,,INVERCARGILL AIRPOR,GSN,,93845.0
New Zealand,NZ,NZ000933090,-39.017,174.183,32.0,,NEW PLYMOUTH AWS,GSN,,93309.0
New Zealand,NZ,NZ000937470,-44.517,169.9,488.0,,TARA HILLS,GSN,,93747.0
New Zealand,NZ,NZ000939450,-52.55,169.167,19.0,,CAMPBELL ISLAND AWS,GSN,,93947.0
Paraguay,PA,PA000086086,-22.283,-57.933,87.0,,PUERTO CASADO,GSN,,86086.0
Paraguay,PA,PA000086297,-27.3,-55.9,91.0,,ENCARNACION,GSN,,86297.0
Pitcairn Islands [United Kingdom],PC,PC000919640,-25.067,-130.1,265.0,,PITCAIRN ISLAND C,GSN,,91964.0
Peru,PE,PE000084377,-3.783,-73.3,126.0,,IQUITOS,GSN,,84377.0
Peru,PE,PE000084455,-6.5,-76.367,282.0,,TARAPOTO,GSN,,84455.0
Peru,PE,PE000084752,-16.332,-71.567,2520.0,,AREQUIPA,GSN,,84752.0
Pakistan,PK,PK000041560,33.867,70.083,1726.0,,PARACHINAR,GSN,,41560.0
Pakistan,PK,PK000041620,31.35,69.467,1407.0,,ZHOB,GSN,,41620.0
Pakistan,PK,PK000041640,31.55,74.333,215.0,,LAHORE CITY,GSN,,41640.0
Pakistan,PK,PK000041712,28.883,64.4,850.0,,DAL BANDIN,GSN,,41712.0
Pakistan,PK,PKM00041759,25.29,63.344,3.7,,PASNI,GSN,,41759.0
Pakistan,PK,PKM00041764,25.383,68.417,41.0,,HYDERABAD AIRPORT,GSN,,41764.0
Poland,PL,PL000012120,54.75,17.5331,2.0,,LEBA,GSN,,12120.0
Poland,PL,PL000012385,52.25,22.25,152.0,,SIEDLCE,GSN,,12385.0
Portugal,PO,PO000008506,38.52,-28.63,62.0,,HORTA (AZORES),GSN,,8506.0
Portugal,PO,PO000008522,32.63,-16.8997,25.0,,FUNCHAL,GSN,,8522.0
Portugal,PO,PO000008535,38.7167,-9.15,77.0,,LISBOA GEOFISICA,GSN,,8535.0
Portugal,PO,POM00008512,37.741,-25.698,78.9,,PONTA DELGADA,GSN,,8512.0
Papua New Guinea,PP,PP000092035,-9.383,147.217,48.0,,PORT MORESBY W.O.,GSN,,92035.0
Papua New Guinea,PP,PPM00092044,-2.05,147.417,4.0,,MOMOTE W.O.,GSN,,92044.0
Palau,PS,PSW00040309,7.3367,134.4769,27.4,PW,KOROR,GSN,,91408.0
Qatar,QA,QAM00041170,25.261,51.565,10.7,,DOHA INTL,GSN,,41170.0
Marshall Islands,RM,RMW00040604,8.7333,167.7333,2.1,MH,KWAJALEIN,GSN,,91366.0
Marshall Islands,RM,RMW00040710,7.065,171.2719,3.0,MH,MAJURO WBAS AP,GSN,,91376.0
Romania,RO,ROM00015085,47.15,24.5,367.0,,BISTRITA,GSN,,15085.0
Romania,RO,ROM00015280,45.45,25.45,2504.0,,VARFU OMUL,GSN,,15280.0
Romania,RO,ROM00015360,45.1667,29.7331,3.0,,SULINA,GSN,,15360.0
Philippines,RP,RP000098232,18.367,121.633,3.0,,APARRI,GSN,,98232.0
Philippines,RP,RP000098430,14.633,121.017,46.0,,SCIENCE GARDEN,GSN,,98430.0
Philippines,RP,RP000098444,13.133,123.733,17.0,,LEGASPI,GSN,,98444.0
Philippines,RP,RP000098755,8.367,126.333,3.0,,HINATUAN,GSN,,98755.0
Philippines,RP,RP000098836,6.9,122.067,6.0,,ZAMBOANGA,GSN,,98836.0
Philippines,RP,RP000098851,6.117,125.183,15.0,,GEN. SANTOS,GSN,,98851.0
Puerto Rico [United States],RQ,RQW00011641,18.4325,-66.0106,3.0,PR,SAN JUAN L M MARIN INTL AP,GSN,,78526.0
Russia,RS,RSM00020046,80.6,58.0,22.0,,POLAR GMO IM.E.T.KRENKELJ,GSN,,20046.0
Russia,RS,RSM00020069,79.5,76.98,10.0,,OSTROV VIZE,GSN,,20069.0
Russia,RS,RSM00020087,79.55,90.62,7.0,,OSTROV GOLOMJANNYJ,GSN,,20087.0
Russia,RS,RSM00020292,77.72,104.3,12.0,,GMO IM.E.K.FEDOROVA,GSN,,20292.0
Russia,RS,RSM00020667,73.33,70.0294,6.0,,BELY ISLAND,GSN,,20667.0
Russia,RS,RSM00020674,73.5,80.4,42.0,,DIKSON,GSN,,20674.0
Russia,RS,RSM00020744,72.3794,52.73,18.0,,MALIYE_KARMAKULY,GSN,,20744.0
Russia,RS,RSM00020891,71.9831,102.4667,31.0,,HATANGA,GSN,,20891.0
Russia,RS,RSM00020982,70.97,94.5,37.0,,VOLOCHANKA,GSN,,20982.0
Russia,RS,RSM00021432,76.0,137.87,12.0,,OSTROV KOTELNYJ,GSN,,21432.0
Russia,RS,RSM00021802,71.97,114.08,16.0,,SASKYLAH,GSN,,21802.0
Russia,RS,RSM00021921,70.68,127.4,30.0,,KJUSJUR,GSN,,21921.0
Russia,RS,RSM00021931,70.77,136.22,23.0,,JUBILEJNAJA,GSN,,21931.0
Russia,RS,RSM00021946,70.6167,147.8831,44.0,,CHOKURDAH,GSN,,21946.0
Russia,RS,RSM00021982,70.9831,-178.4833,2.0,,OSTROV VRANGELJA,GSN,,21982.0
Russia,RS,RSM00022113,68.9667,33.0497,57.0,,MURMANSK,GSN,,22113.0
Russia,RS,RSM00022165,68.65,43.3,47.0,,KANIN NOS,GSN,,22165.0
Russia,RS,RSM00022217,67.15,32.35,26.0,,KANDALAKSA,GSN,,22217.0
Russia,RS,RSM00022471,65.87,44.22,14.0,,MEZEN,GSN,,22471.0
Russia,RS,RSM00022520,64.9831,34.8164,7.0,,KEM-PORT,GSN,,22520.0
Russia,RS,RSM00022550,64.5,40.7331,8.0,,ARHANGELSK,GSN,,22550.0
Russia,RS,RSM00022802,61.7167,30.7167,17.0,,SORTAVALA,GSN,,22802.0
Russia,RS,RSM00022837,61.0167,36.45,55.0,,VYTEGRA,GSN,,22837.0
Russia,RS,RSM00023074,69.4,86.17,14.0,,DUDINKA,GSN,,23074.0
Russia,RS,RSM00023205,67.6331,53.0331,5.0,,NARJAN MAR,GSN,,23205.0
Russia,RS,RSM00023330,66.5294,66.5294,15.0,,SALEKHARD,GSN,,23330.0
Russia,RS,RSM00023383,66.8797,93.47,277.0,,AGATA,GSN,,23383.0
Russia,RS,RSM00023405,65.4331,52.2667,78.0,,UST TZILMA,GSN,,23405.0
Russia,RS,RSM00023472,65.7831,87.9331,38.0,,TURUHANSK,GSN,,23472.0
Russia,RS,RSM00023552,64.92,77.82,26.0,,TARKO-SALE,GSN,,23552.0
Russia,RS,RSM00023631,63.93,65.05,27.0,,BEREZOVO,GSN,,23631.0
Russia,RS,RSM00023678,63.15,87.95,46.0,,VERHNEIMBATSK,GSN,,23678.0
Russia,RS,RSM00023711,62.7,56.2,135.0,,TROICKO-PECHERSKOE,GSN,,23711.0
Russia,RS,RSM00023724,62.43,60.8694,51.0,,NJAKSIMVOL,GSN,,23724.0
Russia,RS,RSM00023884,61.6,90.0167,62.0,,BOR,GSN,,23884.0
Russia,RS,RSM00023891,61.6667,96.3667,256.0,,BAJKIT,GSN,,23891.0
Russia,RS,RSM00023914,60.4,56.52,208.0,,CHERDYN',GSN,,23914.0
Russia,RS,RSM00023933,61.0167,69.1167,46.0,,HANTY-MANSIJSK,GSN,,23933.0
Russia,RS,RSM00023955,60.4331,77.8667,47.0,,ALEKSANDROVSKOE,GSN,,23955.0
Russia,RS,RSM00024125,68.5,112.4331,217.0,,OLENEK,GSN,,24125.0
Russia,RS,RSM00024143,68.73,124.0,38.0,,DZARDZAN,GSN,,24143.0
Russia,RS,RSM00024266,67.5667,133.4,136.0,,VERHOJANSK,GSN,,24266.0
Russia,RS,RSM00024329,66.25,114.28,233.0,,SELAGONCY,GSN,,24329.0
Russia,RS,RSM00024343,66.7667,123.4,88.0,,ZHIGANSK,GSN,,24343.0
Russia,RS,RSM00024382,66.45,143.2297,195.0,,UST-MOMA,GSN,,24382.0
Russia,RS,RSM00024507,64.2667,100.2331,188.0,,TURA,GSN,,24507.0
Russia,RS,RSM00024641,63.7831,121.6167,110.0,,VILJUJSK,GSN,,24641.0
Russia,RS,RSM00024671,63.95,135.87,399.0,,TOMPO,GSN,,24671.0
Russia,RS,RSM00024688,63.25,143.15,740.0,,OJMJAKON,GSN,,24688.0
Russia,RS,RSM00024738,62.15,117.65,131.0,,SUNTAR,GSN,,24738.0
Russia,RS,RSM00024817,61.2667,108.0167,284.0,,ERBOGACEN,GSN,,24817.0
Russia,RS,RSM00024908,60.3331,102.2667,259.0,,VANAVARA,GSN,,24908.0
Russia,RS,RSM00024959,62.0167,129.7167,98.0,,JAKUTSK,GSN,,24959.0
Russia,RS,RSM00024966,60.3831,134.4497,169.0,,UST-MAJA,GSN,,24966.0
Russia,RS,RSM00025173,68.9,-179.3669,2.0,,MYS SHMIDTA,GSN,,25173.0
Russia,RS,RSM00025248,67.25,168.97,352.0,,ILIRNEJ,GSN,,25248.0
Russia,RS,RSM00025325,66.55,159.42,127.0,,UST-OLOJ,GSN,,25325.0
Russia,RS,RSM00025356,66.3797,173.33,78.0,,ENMUVEEM,GSN,,25356.0
Russia,RS,RSM00025399,66.17,-169.8,5.0,,MYS UELEN,GSN,,25399.0
Russia,RS,RSM00025400,65.73,150.9,41.0,,ZYRJANKA,GSN,,25400.0
Russia,RS,RSM00025538,64.22,164.23,324.0,,VERHNEE PENZINO,GSN,,25538.0
Russia,RS,RSM00025551,64.6831,170.4167,25.0,,MARKOVO,GSN,,25551.0
Russia,RS,RSM00025563,64.7831,177.5667,64.0,,ANADYR,GSN,,25563.0
Russia,RS,RSM00025594,64.4167,-173.2333,25.0,,BUHTA PROVIDENJA,GSN,,25594.0
Russia,RS,RSM00025705,62.45,152.32,264.0,,SREDNEKAN,GSN,,25705.0
Russia,RS,RSM00025745,62.4831,166.2167,10.0,,KAMENSKOE,GSN,,25745.0
Russia,RS,RSM00025927,59.65,154.27,7.0,,BROHOVO,GSN,,25927.0
Russia,RS,RSM00026063,59.9667,30.3,3.0,,ST. PETERSBURG,GSN,,26063.0
Russia,RS,RSM00026359,57.0,28.9,108.0,,PUSKINSKIE_GORY,GSN,,26359.0
Russia,RS,RSM00026781,54.75,32.0667,239.0,,SMOLENSK,GSN,,26781.0
Russia,RS,RSM00026997,52.6,33.7997,178.0,,TRUBCEVSK,GSN,,26997.0
Russia,RS,RSM00027037,59.3167,39.9167,125.0,,VOLOGDA,GSN,,27037.0
Russia,RS,RSM00027051,59.97,42.75,134.0,,TOT-MA,GSN,,27051.0
Russia,RS,RSM00027595,55.7331,49.2,116.0,,KAZAN,GSN,,27595.0
Russia,RS,RSM00027612,55.8331,37.6167,156.0,,MOSCOW,GSN,,27612.0
Russia,RS,RSM00027648,54.95,41.7667,136.0,,ELATMA,GSN,,27648.0
Russia,RS,RSM00027995,53.0,49.4,46.0,,BEZENCHUK,GSN,,27995.0
Russia,RS,RSM00028009,59.33,52.23,169.0,,KIRS,GSN,,28009.0
Russia,RS,RSM00028064,59.6167,65.7167,70.0,,LEUSI,GSN,,28064.0
Russia,RS,RSM00028138,58.5167,58.85,463.0,,BISER,GSN,,28138.0
Russia,RS,RSM00028224,58.0167,56.3,171.0,,PERM,GSN,,28224.0
Russia,RS,RSM00028275,58.15,68.25,49.0,,TOBOLSK,GSN,,28275.0
Russia,RS,RSM00028418,56.47,53.73,125.0,,SARAPUL,GSN,,28418.0
Russia,RS,RSM00028493,56.9,74.3831,73.0,,TARA,GSN,,28493.0
Russia,RS,RSM00028552,56.08,63.63,88.0,,SHADRINSK,GSN,,28552.0
Russia,RS,RSM00028698,55.0167,73.3831,121.0,,OMSK,GSN,,28698.0
Russia,RS,RSM00028722,54.7167,55.8331,104.0,,UFA,GSN,,28722.0
Russia,RS,RSM00029231,58.3,82.8831,75.0,,KOLPASEVO,GSN,,29231.0
Russia,RS,RSM00029263,58.45,92.15,77.0,,ENISEJSK,GSN,,29263.0
Russia,RS,RSM00029282,58.3831,97.45,131.0,,BOGUCANY,GSN,,29282.0
Russia,RS,RSM00029570,56.0331,92.75,277.0,,KRASNOJARSK,GSN,,29570.0
Russia,RS,RSM00029612,55.3331,78.3667,119.0,,BARABINSK,GSN,,29612.0
Russia,RS,RSM00029789,54.22,96.97,983.0,,VERHNJAJA GUTARA,GSN,,29789.0
Russia,RS,RSM00029866,53.7167,91.7,254.0,,MINUSINSK,GSN,,29866.0
Russia,RS,RSM00029939,52.68,84.95,224.0,,BIJSK ZONALNAJA,GSN,,29939.0
Russia,RS,RSM00030054,59.45,112.5831,186.0,,VITIM,GSN,,30054.0
Russia,RS,RSM00030230,57.7667,108.0667,256.0,,KIRENSK,GSN,,30230.0
Russia,RS,RSM00030309,56.28,101.75,411.0,,BRATSK,GSN,,30309.0
Russia,RS,RSM00030372,56.9,118.2667,709.0,,CHARA,GSN,,30372.0
Russia,RS,RSM00030433,55.78,109.55,477.0,,NIZHNEANGARSK,GSN,,30433.0
Russia,RS,RSM00030554,54.47,113.58,901.0,,BAGDARIN,GSN,,30554.0
Russia,RS,RSM00030636,53.6167,109.6331,488.0,,BARGUZIN,GSN,,30636.0
Russia,RS,RSM00030673,53.75,119.7331,624.0,,MOGOCA,GSN,,30673.0
Russia,RS,RSM00030710,52.2667,104.35,467.0,,IRKUTSK,GSN,,30710.0
Russia,RS,RSM00030758,52.0831,113.4831,671.0,,CHITA,GSN,,30758.0
Russia,RS,RSM00030879,51.32,119.62,621.0,,NERCHINSKIJ ZAVOD,GSN,,30879.0
Russia,RS,RSM00030925,50.3667,106.45,791.0,,KJAHTA,GSN,,30925.0
Russia,RS,RSM00030949,49.5667,111.9667,907.0,,KYRA,GSN,,30949.0
Russia,RS,RSM00030965,50.4,116.5167,675.0,,BORZJA,GSN,,30965.0
Russia,RS,RSM00031004,58.6167,125.0331,678.0,,ALDAN,GSN,,31004.0
Russia,RS,RSM00031088,59.3667,143.2164,5.0,,OHOTSK,GSN,,31088.0
Russia,RS,RSM00031168,56.45,138.15,6.0,,AJAN,GSN,,31168.0
Russia,RS,RSM00031253,54.7167,128.8667,365.0,,BOMNAK,GSN,,31253.0
Russia,RS,RSM00031329,53.0831,132.983,540.0,,EKIMCHAN,GSN,,31329.0
Russia,RS,RSM00031369,53.15,140.7164,67.0,,NIKOLAEVSK-NA-AMURE,GSN,,31369.0
Russia,RS,RSM00031416,52.4167,136.5,73.0,,IM. POLINY OSIPENKO,GSN,,31416.0
Russia,RS,RSM00031707,47.7331,130.9667,72.0,,EKATERINO-NIKOLSKOE,GSN,,31707.0
Russia,RS,RSM00031873,45.8667,133.733,97.0,,DALNERECHENSK,GSN,,31873.0
Russia,RS,RSM00031960,43.1167,131.933,187.0,,VLADIVOSTOK,GSN,,31960.0
Russia,RS,RSM00032061,50.9,142.1667,30.0,,ALEKSANDROVSK-SAHALINSKIJ,GSN,,32061.0
Russia,RS,RSM00032098,49.2167,143.1,7.0,,PORONAJSK,GSN,,32098.0
Russia,RS,RSM00032150,46.95,142.72,22.0,,JUZHNO-SAHALINSK,GSN,,32150.0
Russia,RS,RSM00032252,58.5,159.17,4.0,,UST-VOJAMPOLKA,GSN,,32252.0
Russia,RS,RSM00032389,56.3167,160.8331,28.0,,KLJUCHI,GSN,,32389.0
Russia,RS,RSM00032618,55.2,165.98,16.0,,NIKOLSKOYE/BERINGA OSTROV,GSN,,32618.0
Russia,RS,RSM00034123,51.7,39.2167,147.0,,VORONEZ,GSN,,34123.0
Russia,RS,RSM00034163,51.63,45.45,202.0,,OKTJABRSKIJ-GORODOK,GSN,,34163.0
Russia,RS,RSM00034186,51.33,48.35,106.0,,ERSOV,GSN,,34186.0
Russia,RS,RSM00034866,46.2,45.4,-7.0,,JASKUL,GSN,,34866.0
Russia,RS,RSM00034880,46.2831,48.05,-23.0,,ASTRAKAN,GSN,,34880.0
Russia,RS,RSM00034927,45.03,39.15,29.0,,KRASNODAR,GSN,,34927.0
Russia,RS,RSM00035011,52.4,53.1,123.0,,SOROCINSK,GSN,,35011.0
Russia,RS,RSM00036259,50.0,88.68,1759.0,,KOSCH-AGACH,GSN,,36259.0
Russia,RS,RSM00037470,42.07,48.3,-19.0,,DERBENT,GSN,,37470.0
Saudi Arabia,SA,SA000040361,29.783,40.1,689.0,,AL-JOUF,GSN,,40361.0
Saudi Arabia,SA,SA000040430,24.55,39.7,636.0,,AL-MADINAH,GSN,,40430.0
Saudi Arabia,SA,SA000040438,24.7,46.733,620.0,,RIYADH OBS. (O.A.P.,GSN,,40438.0
Saudi Arabia,SA,SA000041024,21.7,39.183,17.0,,JEDDAH (KING ABDUL,GSN,,41024.0
Saudi Arabia,SA,SA000403940,27.433,41.683,1002.0,,HAIL,GSN,,40394.0
Saudi Arabia,SA,SAM00041140,16.901,42.586,6.1,,KING ABDULLAH BIN ABDULAZIZ,GSN,,41140.0
Seychelles,SE,SE000063980,-4.667,55.517,3.0,,SEYCHELLES INTERNAT,GSN,,63980.0
South Africa,SF,SF000068438,-28.8,24.767,1196.0,,KIMBERLEY,GSN,,68438.0
South Africa,SF,SF000068858,-33.033,27.833,125.0,,EAST LONDON,GSN,,68858.0
South Africa,SF,SF000068994,-46.883,37.867,21.0,,MARION ISLAND,GSN,,68994.0
South Africa,SF,SF000288380,-34.017,22.383,190.0,,GEORGE AIRPORT,GSN,,68828.0
South Africa,SF,SF001344780,-31.467,19.767,975.0,,CALVINIA,GSN,,68618.0
South Africa,SF,SF002146700,-29.667,17.9,1007.0,,SPRINGBOK,GSN,,68512.0
South Africa,SF,SF002613650,-29.1,26.3,1354.0,,BLOEMFONTEIN AIRPOR,GSN,,68442.0
South Africa,SF,SF003174470,-28.45,21.25,794.0,,UPINGTON AGR.,GSN,,68424.0
South Africa,SF,SFM00068174,-23.867,29.45,1224.0,,POLOKWANE,GSN,,68174.0
South Africa,SF,SFM00068242,-25.798,25.548,1274.4,,MAFIKENG,GSN,,68242.0
South Africa,SF,SFM00068262,-25.733,28.183,1322.0,,PRETORIA(MET),GSN,,68262.0
South Africa,SF,SFM00068461,-28.248,28.336,1695.0,,BETHLEHEM,GSN,,68461.0
South Africa,SF,SFM00068538,-30.667,24.017,1287.0,,DEAAR(UA),GSN,,68538.0
South Africa,SF,SFM00068592,-29.617,31.133,127.0,,KING SHAKA INTL AIRPORT,GSN,,68592.0
South Africa,SF,SFM00068816,-33.965,18.602,46.0,,CAPE TOWN INTL,GSN,,68816.0
South Africa,SF,SFM00068842,-33.985,25.617,68.9,,PORT ELIZABETH INTL,GSN,,68842.0
Senegal,SG,SG000061612,16.633,-14.917,7.0,,PODOR,GSN,,61612.0
Senegal,SG,SG000061641,14.733,-17.5,24.0,,DAKAR/YOFF,GSN,,61641.0
Senegal,SG,SG000061687,13.767,-13.683,50.0,,TAMBACOUNDA,GSN,,61687.0
Saint Helena [United Kingdom],SH,SHM00061901,-15.933,-5.667,436.0,,ST. HELENA IS.,GSN,,61901.0
Saint Helena [United Kingdom],SH,SHM00061902,-7.967,-14.4,79.0,,WIDE AWAKE FIELD (A,GSN,,61902.0
Saint Helena [United Kingdom],SH,SHM00068906,-40.35,-9.883,54.0,,GOUGH ISLAND,GSN,,68906.0
Sierra Leone,SL,SL000061856,8.617,-13.2,27.0,,LUNGI,GSN,,61856.0
Spain,SP,SP000008027,43.3075,-2.0392,251.0,,SAN SEBASTIAN - IGUELDO,GSN,,8027.0
Spain,SP,SP000008181,41.2928,2.0697,4.0,,BARCELONA/AEROPUERTO,GSN,,8181.0
Spain,SP,SP000008202,40.9592,-5.4981,790.0,,SALAMANCA AEROPUERTO,GSN,,8202.0
Spain,SP,SP000008215,40.7806,-4.0103,1894.0,,NAVACERRADA,GSN,,8215.0
Spain,SP,SP000008280,38.9519,-1.8631,704.0,,ALBACETE LOS LLANOS,GSN,,8280.0
Spain,SP,SP000008410,37.8442,-4.8458,90.0,,CORDOBA AEROPUERTO,GSN,,8410.0
Spain,SP,SP000060010,28.3089,-16.4992,2371.0,,IZANA,GSN,,60010.0
Spain,SP,SP000060040,28.9517,-13.6003,14.0,,LANZAROTE/AEROPUERTO,GSN,,60040.0
Spain,SP,SP000060338,35.2778,-2.9553,47.0,,MELILLA,GSN,,60338.0
Sudan,SU,SU000062600,21.82,31.35,190.0,,WADI HALFA,GSN,,62600.0
Sudan,SU,SU000062640,19.533,33.317,312.0,,ABU HAMED,GSN,,62640.0
Sudan,SU,SU000062641,19.583,37.217,42.0,,PORT SUDAN,GSN,,62641.0
Sudan,SU,SU000062650,19.167,30.483,226.0,,DONGOLA,GSN,,62650.0
Sudan,SU,SU000062730,15.467,36.4,500.0,,KASSALA,GSN,,62730.0
Sudan,SU,SU000062760,13.617,25.333,733.0,,EL FASHER,GSN,,62760.0
Sudan,SU,SU000062762,13.55,33.617,418.0,,SENNAR,GSN,,62762.0
Sudan,SU,SU000062770,13.483,22.45,805.0,,GENINA,GSN,,62770.0
Sudan,SU,SU000062781,12.7,28.433,564.0,,EN NAHUD,GSN,,62781.0
Sudan,SU,SU000062840,9.55,31.65,388.0,,MALKAL,GSN,,62840.0
Sudan,SU,SU000062880,7.7,28.017,438.0,,WAU,GSN,,62880.0
Sudan,SU,SU000062941,4.867,31.6,457.0,,JUBA,GSN,,62941.0
Svalbard [Norway],SV,SV000001008,78.25,15.4667,28.0,,SVALBARD AIRPORT,GSN,,1008.0
Sweden,SW,SWE00100026,63.1831,14.4831,376.0,,OESTERSUND-FROESOEN,GSN,,2226.0
Sweden,SW,SWE00140178,63.8081,20.8692,6.0,,HOLMON A,GSN,,2287.0
Sweden,SW,SWE00140622,65.8197,24.12,16.0,,HAPARANDA_A,GSN,,2197.0
Sweden,SW,SWM00002589,58.3942,19.1975,16.0,,GOTSKA SANDON A,GSN,,2589.0
South Georgia and the South Sandwich Islands [United Kingdom],SX,SXM00088903,-54.283,-36.5,3.0,,GRYTVIKEN,GSN,,88903.0
Syria,SY,SY000040001,37.05,41.22,455.0,,KAMISHLI,GSN,,40001.0
Syria,SY,SY000040022,35.53,35.77,7.0,,LATTAKIA,GSN,,40022.0
Syria,SY,SY000040061,34.5494,38.3,404.0,,PALMYRA,GSN,,40061.0
Switzerland,SZ,SZ000002220,47.25,9.35,2502.0,,SAENTIS,GSN,,6680.0
Switzerland,SZ,SZ000006717,45.8667,7.1667,2472.0,,COL DU GRAND ST-BERNARD,GSN,,6717.0
Thailand,TH,TH000048303,19.883,99.833,416.0,,CHIANG RAI,GSN,,48303.0
Thailand,TH,TH000048400,15.8,100.167,35.0,,NAKHON SAWAN,GSN,,48400.0
Thailand,TH,TH000048462,13.7,102.583,49.0,,ARANYAPRATHET,GSN,,48462.0
Thailand,TH,TH000048500,11.8,99.8,3.0,,PRACHUAP KHIRI KHAN,GSN,,48500.0
Thailand,TH,TH000048517,10.483,99.183,5.0,,CHUMPHON,GSN,,48517.0
Thailand,TH,TH000048568,7.2,100.617,9.0,,SONGKHLA,GSN,,48568.0
Tajikistan,TI,TI000038933,37.8167,68.7831,429.0,,KURGAN-TYUBE,GSN,,38933.0
Tajikistan,TI,TI000038954,37.5,71.5,2077.0,,KHOROG,GSN,,38954.0
Togo,TO,TOM00065352,10.367,0.467,146.0,,MANGO/SANSANNE,GSN,,65352.0
Tunisia,TS,TS000060725,36.48,8.8,143.0,,JENDOUBA,GSN,,60725.0
Tunisia,TS,TS000060765,33.88,10.1,4.0,,GABES,GSN,,60765.0
Turkey,TU,TU000017040,41.0331,40.5167,9.0,,RIZE,GSN,,17040.0
Turkey,TU,TU000017062,40.9667,29.0831,33.0,,ISTANBUL,GSN,,17062.0
Turkey,TU,TU000017074,41.3667,33.7831,800.0,,KASTAMONU,GSN,,17074.0
Turkey,TU,TU000017090,39.75,37.0167,1285.0,,SIVAS,GSN,,17090.0
Turkey,TU,TU000017170,38.45,43.32,1662.0,,VAN,GSN,,17170.0
Turkey,TU,TU000017240,37.75,30.55,997.0,,ISPARTA,GSN,,17240.0
Turkey,TU,TU000017375,36.3164,30.15,2.0,,FINIKE,GSN,,17375.0
Tuvalu,TV,TV000091631,-5.667,176.133,3.0,,NANUMEA,GSN,,91631.0
Tuvalu,TV,TV000091643,-8.517,179.217,2.0,,FUNAFUTI INTL ARPT,GSN,,91643.0
Turkmenistan,TX,TX000038507,40.05,53.0,82.0,,TURKMEN-BASHI,GSN,,38507.0
Turkmenistan,TX,TX000038750,37.4667,53.6331,-22.0,,ESENGYLY,GSN,,38750.0
Turkmenistan,TX,TX000038763,38.98,56.28,97.0,,GYZYLARBAT,GSN,,38763.0
Turkmenistan,TX,TX000038895,37.6,62.1831,240.0,,BAJRAMALY,GSN,,38895.0
Turkmenistan,TX,TX000038915,37.517,66.017,265.0,,CARSANGA,GSN,,38915.0
Tanzania,TZ,TZ000063832,-5.083,32.833,1182.0,,TABORA AIRPORT,GSN,,63832.0
Tanzania,TZ,TZ000063862,-6.167,35.767,1120.0,,DODOMA,GSN,,63862.0
Tanzania,TZ,TZ000063894,-6.867,39.2,53.0,,DAR ES SALAAM AIRPO,GSN,,63894.0
Tanzania,TZ,TZ000063962,-10.667,35.583,1036.0,,SONGEA,GSN,,63962.0
United Kingdom,UK,UK000003005,60.1331,-1.1831,82.0,,LERWICK,GSN,,3005.0
United Kingdom,UK,UK000003026,58.33,-6.32,9.0,,STORNOWAY AIRPORT,GSN,,3026.0
United Kingdom,UK,UK000003162,55.3167,-3.2,242.0,,ESKDALEMUIR,GSN,,3162.0
United Kingdom,UK,UK000003302,53.25,-4.5331,11.0,,VALLEY,GSN,,3302.0
United Kingdom,UK,UK000003377,53.1658,0.5239,68.0,,WADDINGTON,GSN,,3377.0
United Kingdom,UK,UK000003808,50.2167,-5.3167,88.0,,CAMBORNE,GSN,,3808.0
Ukraine,UP,UPM00033317,50.17,27.05,277.0,,SHEPETIVKA,GSN,,33317.0
Ukraine,UP,UPM00033377,50.02,33.0,156.0,,LUBNY,GSN,,33377.0
Ukraine,UP,UPM00033587,48.77,30.23,214.0,,UMAN,GSN,,33587.0
Ukraine,UP,UPM00033915,46.5,33.9,28.0,,ASKANIIA NOVA,GSN,,33915.0
United States,US,USP00CA0003,38.5069,-121.495,4.6,CA,SACRAMENTO AP ASOS,GSN,,72483.0
United States,US,USW00003870,34.8833,-82.2197,325.8,SC,GREER,GSN,HCN,72312.0
United States,US,USW00003945,38.8169,-92.2147,272.2,MO,COLUMBIA RGNL AP,GSN,,72445.0
United States,US,USW00012836,24.5569,-81.7553,0.3,FL,KEY W INTL AP,GSN,HCN,72201.0
United States,US,USW00012842,27.9633,-82.54,1.8,FL,TAMPA INTL AP,GSN,,72211.0
United States,US,USW00012916,29.9975,-90.2778,-0.9,LA,NEW ORLEANS AP,GSN,,72231.0
United States,US,USW00012921,29.5442,-98.4839,243.5,TX,SAN ANTONIO INTL AP,GSN,HCN,72253.0
United States,US,USW00013722,35.8922,-78.7819,120.4,NC,RALEIGH AP,GSN,,72306.0
United States,US,USW00013743,38.8472,-77.0344,4.0,VA,WASHINGTON REAGAN NATL AP,GSN,,72405.0
United States,US,USW00013782,32.775,-79.9239,3.0,SC,DWTN CHARLESTON,GSN,HCN,72208.0
United States,US,USW00013865,32.3347,-88.7508,88.1,MS,MERIDIAN KEY FLD,GSN,,72234.0
United States,US,USW00013882,35.0336,-85.2003,203.9,TN,CHATTANOOGA AP,GSN,,72324.0
United States,US,USW00013957,32.4508,-93.8414,118.0,LA,SHREVEPORT,GSN,,72248.0
United States,US,USW00013962,32.4106,-99.6819,544.7,TX,ABILENE RGNL AP,GSN,,72266.0
United States,US,USW00013964,35.3333,-94.3653,136.6,AR,FT SMITH RGNL AP,GSN,,72344.0
United States,US,USW00013967,35.3883,-97.6003,389.8,OK,OKLAHOMA CY WILL ROGERS WORLD,GSN,,72353.0
United States,US,USW00013984,39.5514,-97.6508,444.4,KS,CONCORDIA ASOS,GSN,,72458.0
United States,US,USW00013985,37.7608,-99.9689,814.1,KS,DODGE CITY,GSN,,72451.0
United States,US,USW00014607,46.8706,-68.0172,188.7,ME,CARIBOU WFO,GSN,,72712.0
United States,US,USW00014742,44.4683,-73.15,101.2,VT,BURLINGTON INTL AP,GSN,HCN,72617.0
United States,US,USW00014753,42.2122,-71.1136,190.5,MA,BLUE HILL LCD,GSN,,74492.0
United States,US,USW00014755,44.2703,-71.3033,1911.7,NH,MT WASHINGTON,GSN,,72613.0
United States,US,USW00014771,43.1111,-76.1039,125.0,NY,SYRACUSE HANCOCK INTL AP,GSN,HCN,72519.0
United States,US,USW00014838,46.5458,-87.3794,202.7,MI,MARQUETTE,GSN,,72743.0
United States,US,USW00014842,40.6675,-89.6842,199.6,IL,GENERAL WAYNE A DOWNING INTL A,GSN,,72532.0
United States,US,USW00014922,44.8853,-93.2314,254.5,MN,MINNEAPOLIS-ST PAUL INTL AP,GSN,HCN,72658.0
United States,US,USW00014933,41.5339,-93.6531,286.2,IA,DES MOINES INTL AP,GSN,,72546.0
United States,US,USW00014936,44.3792,-98.2228,390.8,SD,HURON RGNL AP,GSN,,72654.0
United States,US,USW00014941,41.98,-97.4336,476.1,NE,NORFOLK KARL STEFAN MEM AP,GSN,,72556.0
United States,US,USW00021504,19.7192,-155.0489,8.8,HI,HILO INTL AP 87,GSN,,91285.0
United States,US,USW00022536,21.9806,-159.3386,32.0,HI,LIHUE WSO AP 1020.1,GSN,,91165.0
United States,US,USW00023044,31.8122,-106.3775,1202.1,TX,EL PASO INTL AP,GSN,HCN,72270.0
United States,US,USW00023050,35.0419,-106.6156,1618.5,NM,ALBUQUERQUE INTL AP,GSN,,72365.0
United States,US,USW00023051,36.4483,-103.1536,1514.6,NM,CLAYTON MUNI AIR PK,GSN,HCN,72360.0
United States,US,USW00023066,39.1344,-108.5408,1470.4,CO,GRAND JUNCTION WALKER FLD,GSN,,72476.0
United States,US,USW00023154,39.2953,-114.8467,1905.0,NV,ELY AP,GSN,,72486.0
United States,US,USW00023169,36.0719,-115.1633,662.9,NV,MCCARRAN INTL AP,GSN,,72386.0
United States,US,USW00023183,33.4278,-112.0036,339.2,AZ,PHOENIX AP,GSN,,72278.0
United States,US,USW00023188,32.7336,-117.1831,4.6,CA,SAN DIEGO INTL AP,GSN,,72290.0
United States,US,USW00024011,46.7708,-100.7606,534.9,ND,BISMARCK,GSN,,72764.0
United States,US,USW00024021,42.8153,-108.7261,1698.3,WY,LANDER AP,GSN,,72576.0
United States,US,USW00024023,41.1219,-100.6689,841.9,NE,N PLATTE RGNL AP,GSN,,72562.0
United States,US,USW00024029,44.7603,-106.9742,1210.4,WY,SHERIDAN AP,GSN,,72666.0
United States,US,USW00024128,40.9017,-117.8081,1310.6,NV,WINNEMUCCA AP,GSN,HCN,72583.0
United States,US,USW00024131,43.5669,-116.2406,860.5,ID,BOISE AIR TERMINAL,GSN,,72681.0
United States,US,USW00024144,46.6044,-111.9892,1178.1,MT,HELENA AP ASOS,GSN,HCN,72772.0
United States,US,USW00024155,45.6906,-118.8531,481.6,OR,PENDLETON,GSN,,72688.0
United States,US,USW00024156,42.9197,-112.5722,1356.7,ID,POCATELLO RGNL AP,GSN,,72578.0
United States,US,USW00024213,40.8097,-124.1603,6.1,CA,EUREKA WFO WOODLEY IS,GSN,HCN,72594.0
United States,US,USW00024227,46.9736,-122.905,61.0,WA,OLYMPIA AP,GSN,,72792.0
United States,US,USW00025308,55.0389,-131.5786,33.2,AK,ANNETTE AP,GSN,,70398.0
United States,US,USW00025339,59.5122,-139.6711,12.5,AK,YAKUTAT AP,GSN,,70361.0
United States,US,USW00025503,58.6794,-156.6294,43.9,AK,KING SALMON,GSN,,70326.0
United States,US,USW00025507,59.6419,-151.4911,19.2,AK,HOMER AP,GSN,,70341.0
United States,US,USW00025624,55.2206,-162.7322,21.9,AK,COLD BAY AP,GSN,,70316.0
United States,US,USW00025713,57.155,-170.2228,7.9,AK,SAINT PAUL IS AP,GSN,,70308.0
United States,US,USW00026411,64.8031,-147.8761,131.1,AK,FAIRBANKS INTL AP,GSN,,70261.0
United States,US,USW00026510,62.9575,-155.61,100.9,AK,MCGRATH AP,GSN,,70231.0
United States,US,USW00026528,62.3197,-150.0975,106.7,AK,TALKEETNA AP,GSN,,70251.0
United States,US,USW00026615,60.785,-161.8294,32.6,AK,BETHEL AP,GSN,,70219.0
United States,US,USW00026616,66.8856,-162.6067,3.4,AK,KOTZEBUE AP,GSN,,70133.0
United States,US,USW00026617,64.5111,-165.44,5.5,AK,NOME AP,GSN,,70200.0
United States,US,USW00027401,70.1333,-143.6333,11.9,AK,BARTER ISLAND WSO AP,GSN,,70086.0
United States,US,USW00027502,71.2869,-156.7394,8.2,AK,BARROW AP,GSN,,70026.0
United States,US,USW00093193,36.78,-119.7203,101.8,CA,FRESNO YOSEMITE INTL,GSN,HCN,72389.0
United States,US,USW00093729,35.2325,-75.6222,3.7,NC,CAPE HATTERAS - BILLY MITCHELL,GSN,HCN,72304.0
United States,US,USW00093817,38.0503,-87.5147,122.5,IN,EVANSVILLE RGNL AP,GSN,,72432.0
United States,US,USW00093820,38.0339,-84.6114,293.2,KY,LEXINGTON BLUEGRASS AP,GSN,,72422.0
United States,US,USW00094008,48.2064,-106.6247,726.6,MT,GLASGOW,GSN,HCN,72768.0
United States,US,USW00094823,40.4847,-80.2144,341.1,PA,PITTSBURGH ASOS,GSN,,72520.0
Burkina Faso,UV,UV000065501,14.033,-0.033,277.0,,DORI,GSN,,65501.0
Burkina Faso,UV,UV000065516,11.75,-2.933,271.0,,BOROMO,GSN,,65516.0
Uruguay,UY,UY000001709,-32.35,-54.183,100.0,,MELO,GSN,,86440.0
Uruguay,UY,UY000086330,-30.4,-56.52,121.0,,EST.MET.ARTIGAS,GSN,,86330.0
Uruguay,UY,UY000086490,-33.25,-58.067,17.0,,MERCEDES,GSN,,86490.0
Uruguay,UY,UY000086565,-34.483,-54.3,18.0,,ROCHA,GSN,,86565.0
Uzbekistan,UZ,UZM00038262,42.95,59.8167,66.0,,CIMBAJ,GSN,,38262.0
Uzbekistan,UZ,UZM00038413,41.7331,64.6167,237.0,,TAMDY,GSN,,38413.0
Uzbekistan,UZ,UZM00038457,41.27,69.2694,477.0,,TASHKENT,GSN,,38457.0
Venezuela,VE,VE000080405,11.8,-66.183,3.0,,LA ORCHILA,GSN,,80405.0
Venezuela,VE,VE000080423,10.583,-62.317,14.0,,GUIRIA,GSN,,80423.0
Venezuela,VE,VE000080425,9.817,-70.933,28.0,,MENE GRANDE,GSN,,80425.0
Venezuela,VE,VE000080438,8.6,-71.183,1498.0,,MERIDA,GSN,,80438.0
Venezuela,VE,VE000080450,7.68,-67.42,47.0,,SAN FERNANDO,GSN,,80450.0
Venezuela,VE,VE000080453,7.3,-61.45,181.0,,TUMEREMO,GSN,,80453.0
Venezuela,VE,VE000080462,4.6,-61.117,907.0,,SANTA ELENA DE UAIR,GSN,,80462.0
Vietnam,VM,VM000048900,10.82,106.67,5.0,,TAN SON HOA,GSN,,48900.0
Vietnam,VM,VMM00048855,16.044,108.199,10.1,,DANANG INTL,GSN,,48855.0
Namibia,WA,WA004191820,-26.53,18.12,1077.0,,J.G.H. VAN DER WATH AIRP,GSN,,68312.0
Namibia,WA,WA006490640,-23.567,15.05,400.0,,GOBABEB,GSN,,68106.0
Namibia,WA,WA007401540,-22.567,17.1,1700.0,,WINDHOEK,GSN,,68110.0
Namibia,WA,WA010101860,-19.6,18.117,1400.0,,GROOTFONTEIN,GSN,,68014.0
Wallis and Futuna [France],WF,WF000917530,-13.233,-176.167,27.0,,HIHIFO (ILE WALLIS),GSN,,91753.0
Zambia,ZA,ZA000067441,-11.75,24.433,1363.0,,MWINILUNGA,GSN,,67441.0
Zambia,ZA,ZA000067475,-10.217,31.133,1384.0,,KASAMA,GSN,,67475.0
Zambia,ZA,ZA000067581,-13.55,32.583,1032.0,,CHIPATA,GSN,,67581.0
Zambia,ZA,ZA000067633,-15.25,23.15,1053.0,,MONGU,GSN,,67633.0
Zambia,ZA,ZA000067743,-17.817,25.817,986.0,,LIVINGSTONE,GSN,,67743.0
Zimbabwe,ZI,ZI000067775,-17.917,31.133,1480.0,,HARARE (KUTSAGA),GSN,,67775.0
Zimbabwe,ZI,ZI000067964,-20.15,28.617,1344.0,,BULAWAYO (GOETZ OBS,GSN,,67964.0
Zimbabwe,ZI,ZI000067983,-20.2,32.616,1132.0,,CHIPINGE,GSN,,67983.0
